[{"uid": "", "version": 10, "user": "", "tags": {"highway": "residential"}, "id": "67172008"}, {"uid": "", "version": 5, "user": "", "tags": {"highway": "residential"}, "id": "67197299"}, {"uid": "", "version": 4, "user": "", "tags": {"highway": "residential"}, "id": "70286007"}, {"uid": "", "version": 5, "user": "", "tags": {"name": "Calle 117", "highway": "residential"}, "id": "70286087"}, {"uid": "", "version": 6, "user": "", "tags": {"highway": "residential"}, "id": "70286181"}, {"uid": "", "version": 4, "user": "", "tags": {"name": "Calle 111", "highway": "residential"}, "id": "70286335"}, {"uid": "", "version": 4, "user": "", "tags": {"name": "Calle 112", "highway": "residential"}, "id": "70286486"}, {"uid": "", "version": 4, "user": "", "tags": {"name": "Calle 115", "highway": "residential"}, "id": "70286558"}, {"uid": "", "version": 6, "user": "", "tags": {"name": "Calle 20", "highway": "residential"}, "id": "70286683"}, {"uid": "", "version": 6, "user": "", "tags": {"name": "Carrera 21 a", "highway": "residential"}, "id": "70286762"}, {"uid": "", "version": 7, "user": "", "tags": {"name": "Carrera 20", "highway": "residential"}, "id": "70286794"}, {"uid": "", "version": 10, "user": "", "tags": {"name": "Carrera 27", "highway": "residential"}, "id": "70286795"}, {"uid": "", "version": 9, "user": "", "tags": {"name": "Carrera 30", "highway": "residential"}, "id": "70286854"}, {"uid": "", "version": 7, "user": "", "tags": {"lanes": "1", "highway": "residential", "oneway": "yes", "name": "Carrera 28", "mechanical": "yes"}, "id": "70287158"}, {"uid": "", "version": 3, "user": "", "tags": {"highway": "residential"}, "id": "70287476"}, {"uid": "", "version": 9, "user": "", "tags": {"name": "Calle 4", "highway": "residential"}, "id": "70287538"}, {"uid": "", "version": 11, "user": "", "tags": {"highway": "residential"}, "id": "70881487"}, {"uid": "", "version": 7, "user": "", "tags": {"highway": "residential"}, "id": "70998965"}, {"uid": "", "version": 6, "user": "", "tags": {"name": "Calle 105 A", "highway": "residential"}, "id": "71008728"}, {"uid": "", "version": 5, "user": "", "tags": {"name": "Calle 104", "highway": "residential"}, "id": "71008738"}, {"uid": "", "version": 6, "user": "", "tags": {"name": "Calle 104 D", "highway": "residential"}, "id": "71008743"}, {"uid": "", "version": 4, "user": "", "tags": {"name": "Carrera 6", "highway": "residential"}, "id": "71008793"}, {"uid": "", "version": 8, "user": "", "tags": {"name": "Calle 109", "highway": "residential"}, "id": "71008807"}, {"uid": "", "version": 5, "user": "", "tags": {"lanes": "2", "highway": "residential", "name": "Calle 143"}, "id": "71797679"}, {"uid": "", "version": 4, "user": "", "tags": {"name": "Calle 104 F", "highway": "residential"}, "id": "71806188"}, {"uid": "", "version": 4, "user": "", "tags": {"name": "Carrera 7", "highway": "residential"}, "id": "71806193"}, {"uid": "", "version": 3, "user": "", "tags": {"name": "Calle 104 E", "highway": "residential"}, "id": "71806231"}, {"uid": "", "version": 4, "user": "", "tags": {"highway": "residential"}, "id": "94836408"}, {"uid": "", "version": 6, "user": "", "tags": {"name": "Carrera 33", "highway": "residential"}, "id": "94836541"}, {"uid": "", "version": 8, "user": "", "tags": {"name": "Calle 5", "highway": "residential"}, "id": "95021433"}, {"uid": "", "version": 6, "user": "", "tags": {"mechanical": "yes", "highway": "residential", "oneway": "yes", "name": "Carrera 18"}, "id": "95021460"}, {"uid": "", "version": 8, "user": "", "tags": {"name": "Calle 6", "highway": "residential"}, "id": "95021534"}, {"uid": "", "version": 3, "user": "", "tags": {"highway": "residential"}, "id": "95021551"}, {"uid": "", "version": 7, "user": "", "tags": {"name": "Carrera 17", "highway": "residential"}, "id": "95023847"}, {"uid": "", "version": 5, "user": "", "tags": {"highway": "residential"}, "id": "95240419"}, {"uid": "", "version": 7, "user": "", "tags": {"name": "Calle 22", "highway": "residential", "oneway": "yes"}, "id": "95538342"}, {"uid": "", "version": 3, "user": "", "tags": {"highway": "residential"}, "id": "95538737"}, {"uid": "", "version": 5, "user": "", "tags": {"name": "Carrera 39A", "highway": "residential"}, "id": "95597267"}, {"uid": "", "version": 3, "user": "", "tags": {"name": "Calle 31", "highway": "residential"}, "id": "95597317"}, {"uid": "", "version": 6, "user": "", "tags": {"name": "Carrera 41", "highway": "residential"}, "id": "95597367"}, {"uid": "", "version": 3, "user": "", "tags": {"name": "Carrera 40", "highway": "residential"}, "id": "95597414"}, {"uid": "", "version": 3, "user": "", "tags": {"name": "Calle 37", "highway": "residential"}, "id": "95677941"}, {"uid": "", "version": 3, "user": "", "tags": {"lanes": "1", "highway": "residential", "oneway": "yes", "name": "Carrera 20", "mechanical": "yes"}, "id": "95678726"}, {"uid": "", "version": 4, "user": "", "tags": {"lanes": "2", "highway": "residential", "oneway": "yes", "name": "Carrera 17C", "mechanical": "yes"}, "id": "95696724"}, {"uid": "", "version": 4, "user": "", "tags": {"name": "Carrera 17B 1", "highway": "residential"}, "id": "95696775"}, {"uid": "", "version": 5, "user": "", "tags": {"name": "Carrera 17A", "highway": "residential", "oneway": "yes"}, "id": "95713700"}, {"uid": "", "version": 3, "user": "", "tags": {"name": "Calle 63", "highway": "residential"}, "id": "95713798"}, {"uid": "", "version": 2, "user": "", "tags": {"lanes": "2", "highway": "residential", "oneway": "yes", "name": "Calle 55"}, "id": "95745154"}, {"uid": "", "version": 2, "user": "", "tags": {"lanes": "2", "highway": "residential", "oneway": "yes", "name": "Calle 55"}, "id": "95745190"}, {"uid": "", "version": 5, "user": "", "tags": {"name": "Calle 201 b", "highway": "residential"}, "id": "95834178"}, {"uid": "", "version": 2, "user": "", "tags": {"name": "Calle 197", "highway": "residential"}, "id": "95834228"}, {"uid": "", "version": 2, "user": "", "tags": {"highway": "residential"}, "id": "95834245"}, {"uid": "", "version": 2, "user": "", "tags": {"highway": "residential"}, "id": "95875462"}, {"uid": "", "version": 2, "user": "", "tags": {"highway": "residential"}, "id": "95875480"}, {"uid": "", "version": 2, "user": "", "tags": {"highway": "residential"}, "id": "95875511"}, {"uid": "", "version": 3, "user": "", "tags": {"name": "Calle 28 A", "highway": "residential"}, "id": "95965729"}, {"uid": "", "version": 4, "user": "", "tags": {"highway": "residential"}, "id": "96149647"}, {"uid": "", "version": 3, "user": "", "tags": {"lanes": "2", "highway": "residential", "name": "Calle 15 b"}, "id": "97019307"}, {"uid": "", "version": 8, "user": "", "tags": {"lanes": "2", "highway": "residential", "name": "Calle 29 a"}, "id": "97019361"}, {"uid": "", "version": 3, "user": "", "tags": {"lanes": "1", "highway": "residential", "oneway": "yes", "name": "Calle 20"}, "id": "97030131"}, {"uid": "", "version": 4, "user": "", "tags": {"mechanical": "yes", "highway": "residential", "name": "Carrera 29"}, "id": "97030285"}, {"uid": "", "version": 2, "user": "", "tags": {"lanes": "2", "highway": "residential"}, "id": "98170374"}, {"uid": "", "version": 2, "user": "", "tags": {"name": "Calle 104 C", "highway": "residential"}, "id": "98245170"}, {"uid": "", "version": 2, "user": "", "tags": {"name": "Calle 104 A", "highway": "residential"}, "id": "98245198"}, {"uid": "", "version": 2, "user": "", "tags": {"name": "Calle 104 E", "highway": "residential"}, "id": "98245208"}, {"uid": "", "version": 2, "user": "", "tags": {"name": "Carrera 7", "highway": "residential"}, "id": "98245215"}, {"uid": "", "version": 2, "user": "", "tags": {"highway": "residential"}, "id": "98245238"}, {"uid": "", "version": 2, "user": "", "tags": {"name": "Carrera 8", "highway": "residential"}, "id": "98245281"}, {"uid": "", "version": 3, "user": "", "tags": {"highway": "residential"}, "id": "98245318"}, {"uid": "", "version": 2, "user": "", "tags": {"highway": "residential"}, "id": "98245326"}, {"uid": "", "version": 3, "user": "", "tags": {"name": "Carrera 22", "highway": "residential"}, "id": "98662647"}, {"uid": "", "version": 2, "user": "", "tags": {"name": "Carrera 22", "highway": "residential"}, "id": "98662679"}, {"uid": "", "version": 2, "user": "", "tags": {"highway": "residential"}, "id": "98739308"}, {"uid": "", "version": 4, "user": "", "tags": {"name": "Carrera 7", "highway": "residential"}, "id": "98898028"}, {"uid": "", "version": 3, "user": "", "tags": {"name": "Carrera 29", "highway": "residential"}, "id": "99235849"}, {"uid": "", "version": 3, "user": "", "tags": {"name": "Carrera 29", "highway": "residential"}, "id": "99235884"}, {"uid": "", "version": 3, "user": "", "tags": {"name": "Calle 94", "highway": "residential"}, "id": "99235904"}, {"uid": "", "version": 3, "user": "", "tags": {"name": "Calle 94", "highway": "residential"}, "id": "99236043"}, {"uid": "", "version": 3, "user": "", "tags": {"name": "Calle 94 a", "highway": "residential"}, "id": "99236181"}, {"uid": "", "version": 8, "user": "", "tags": {"highway": "residential"}, "id": "99721158"}, {"uid": "", "version": 2, "user": "", "tags": {"name": "Calle 37", "highway": "residential"}, "id": "99731981"}, {"uid": "", "version": 2, "user": "", "tags": {"highway": "residential"}, "id": "100035391"}, {"uid": "", "version": 7, "user": "", "tags": {"lanes": "2", "highway": "residential", "ref": "Route 45A", "name": "Calle 3"}, "id": "100865331"}, {"uid": "", "version": 3, "user": "", "tags": {"highway": "residential"}, "id": "100880978"}, {"uid": "", "version": 7, "user": "", "tags": {"highway": "residential"}, "id": "100880993"}, {"uid": "", "version": 8, "user": "", "tags": {"highway": "residential"}, "id": "100881092"}, {"uid": "", "version": 4, "user": "", "tags": {"highway": "residential", "creation": "10-05-2011", "source": "bing", "surface": "dirt"}, "id": "112576733"}, {"uid": "", "version": 4, "user": "", "tags": {"autor": "S.D.", "highway": "residential", "creation": "10-05-2011", "source": "bing"}, "id": "112576919"}, {"uid": "", "version": 3, "user": "", "tags": {"autor": "S.D.", "highway": "residential", "creation": "10-05-2011", "source": "bing"}, "id": "112576920"}, {"uid": "", "version": 4, "user": "", "tags": {"autor": "S.D.", "highway": "residential", "creation": "15-06-2011", "source": "bing", "surface": "dirt"}, "id": "117824649"}, {"uid": "", "version": 2, "user": "", "tags": {"autor": "S.D.", "highway": "residential", "creation": "15-06-2011", "source": "bing", "surface": "dirt"}, "id": "117824656"}, {"uid": "", "version": 3, "user": "", "tags": {"autor": "S.D.", "highway": "residential", "creation": "15-06-2011", "source": "bing", "surface": "dirt"}, "id": "117824657"}, {"uid": "", "version": 5, "user": "", "tags": {"autor": "S.D.", "highway": "residential", "creation": "06-07-2011", "source": "bing", "surface": "dirt"}, "id": "120513225"}, {"uid": "", "version": 3, "user": "", "tags": {"name": "Carrera 10", "highway": "residential"}, "id": "121218870"}, {"uid": "", "version": 4, "user": "", "tags": {"name": "Calle 107", "highway": "residential"}, "id": "121218871"}, {"uid": "", "version": 14, "user": "", "tags": {"autor": "S.D.", "highway": "residential", "creation": "13-05-2011; 25-05-2011", "source": "bing; Bicycle GPS traces http://www.welcomebucaramanga.com", "surface": "dirt"}, "id": "125950133"}, {"uid": "", "version": 5, "user": "", "tags": {"name": "Calle 200 a", "highway": "residential"}, "id": "172684198"}, {"uid": "", "version": 2, "user": "", "tags": {"highway": "residential"}, "id": "187024536"}, {"uid": "", "version": 2, "user": "", "tags": {"highway": "residential"}, "id": "211202513"}, {"uid": "", "version": 4, "user": "", "tags": {"name": "Calle 45 a", "highway": "residential"}, "id": "266221593"}, {"uid": "", "version": 3, "user": "", "tags": {"name": "Calle 106", "highway": "residential"}, "id": "269860880"}, {"uid": "", "version": 2, "user": "", "tags": {"name": "Calle 200 b", "highway": "residential"}, "id": "270731305"}, {"uid": "", "version": 2, "user": "", "tags": {"name": "Calle 201 b", "highway": "residential"}, "id": "270740337"}, {"uid": "", "version": 2, "user": "", "tags": {"highway": "residential"}, "id": "273136568"}, {"uid": "", "version": 3, "user": "", "tags": {"highway": "residential"}, "id": "273136571"}, {"uid": "", "version": 2, "user": "", "tags": {"highway": "residential"}, "id": "273156908"}, {"uid": "", "version": 2, "user": "", "tags": {"highway": "residential"}, "id": "274438374"}, {"uid": "", "version": 2, "user": "", "tags": {"highway": "residential"}, "id": "274438376"}, {"uid": "", "version": 3, "user": "", "tags": {"name": "Calle 106", "highway": "residential"}, "id": "355344578"}, {"uid": "", "version": 2, "user": "", "tags": {"highway": "residential"}, "id": "355348347"}, {"uid": "", "version": 7, "user": "", "tags": {"name": "Calle 42", "highway": "residential", "oneway": "yes"}, "id": "375277357"}, {"uid": "", "version": 4, "user": "", "tags": {"lanes": "1", "highway": "residential", "oneway": "yes", "name": "Calle 55"}, "id": "472102909"}, {"uid": "", "version": 4, "user": "", "tags": {"autor": "S.D.", "highway": "residential", "creation": "13-05-2011", "source": "bing; Bicycle GPS traces http://www.welcomebucaramanga.com; bing", "surface": "dirt"}, "id": "560899511"}, {"uid": "", "version": 2, "user": "", "tags": {"autor": "S.D.", "highway": "residential", "creation": "12-20-2011", "source": "bing", "surface": "dirt"}, "id": "561205972"}, {"uid": "", "user": "", "version": 1, "nodes": [{"lon": -73.1615942, "lat": 7.0586394, "id": "5619003430"}, {"lon": -73.1620783, "lat": 7.0580324, "id": "5619003431"}, {"lon": -73.1615942, "lat": 7.0586394, "id": "5619003430"}], "tags": {"highway": "residential"}, "id": "588292330"}, {"uid": "", "user": "", "version": 1, "nodes": [{"lon": -73.1296296, "lat": 7.141242, "id": "5619089555"}, {"lon": -73.1297164, "lat": 7.1412287, "id": "5619089556"}, {"lon": -73.129766, "lat": 7.1412211, "id": "5619089557"}, {"lon": -73.129847, "lat": 7.1412087, "id": "5619089558"}, {"lon": -73.1299138, "lat": 7.1411984, "id": "5619089559"}, {"lon": -73.1299434, "lat": 7.1411939, "id": "5619089560"}, {"lon": -73.1300045, "lat": 7.1411845, "id": "839099218"}, {"lon": -73.1301487, "lat": 7.141162, "id": "5619089561"}, {"lon": -73.1302179, "lat": 7.1411512, "id": "5619089562"}, {"lon": -73.1302705, "lat": 7.1411615, "id": "5619089563"}, {"lon": -73.1303529, "lat": 7.1411301, "id": "5619089564"}, {"lon": -73.1303846, "lat": 7.1411252, "id": "5619089565"}], "tags": {"highway": "residential"}, "id": "588305920"}, {"uid": "", "user": "", "version": 1, "nodes": [{"lon": -73.1304225, "lat": 7.1410903, "id": "5619089566"}, {"lon": -73.1303967, "lat": 7.1409565, "id": "5619089567"}, {"lon": -73.1303867, "lat": 7.1409046, "id": "5619090032"}, {"lon": -73.1303602, "lat": 7.1407669, "id": "5619090033"}, {"lon": -73.1303368, "lat": 7.1406452, "id": "5619090035"}, {"lon": -73.1303012, "lat": 7.1404602, "id": "5619090038"}, {"lon": -73.1302882, "lat": 7.1403924, "id": "5619089568"}, {"lon": -73.1302813, "lat": 7.1403568, "id": "839098024"}], "tags": {"highway": "residential"}, "id": "588305922"}, {"uid": "", "user": "", "version": 1, "nodes": [{"lon": -73.1300045, "lat": 7.1411845, "id": "839099218"}, {"lon": -73.1299987, "lat": 7.1411518, "id": "5619089967"}, {"lon": -73.1299877, "lat": 7.1410899, "id": "5619089968"}, {"lon": -73.1299501, "lat": 7.1408789, "id": "5619089969"}, {"lon": -73.1299228, "lat": 7.1407253, "id": "5619089970"}, {"lon": -73.1299101, "lat": 7.1406538, "id": "5619089971"}, {"lon": -73.1299037, "lat": 7.1406177, "id": "5619089972"}, {"lon": -73.1298936, "lat": 7.1405611, "id": "5619089973"}, {"lon": -73.1298819, "lat": 7.140495, "id": "5619089974"}, {"lon": -73.1298745, "lat": 7.1404535, "id": "5619089975"}, {"lon": -73.1298701, "lat": 7.1404289, "id": "839103933"}], "tags": {"highway": "residential"}, "id": "588305923"}, {"uid": "", "user": "", "version": 1, "nodes": [{"lon": -73.1294212, "lat": 7.1405075, "id": "5619089976"}, {"lon": -73.1293399, "lat": 7.1405154, "id": "5619089977"}, {"lon": -73.1292569, "lat": 7.1405234, "id": "5619089978"}, {"lon": -73.1291502, "lat": 7.1405337, "id": "5619089979"}, {"lon": -73.1286087, "lat": 7.140586, "id": "5619089980"}, {"lon": -73.1294474, "lat": 7.140505, "id": "839088595"}], "tags": {"highway": "residential"}, "id": "588305965"}, {"uid": "", "user": "", "version": 1, "nodes": [{"lon": -73.1236149, "lat": 7.1435064, "id": "5619112121"}, {"lon": -73.1235202, "lat": 7.1435607, "id": "5619112122"}, {"lon": -73.1234315, "lat": 7.1436128, "id": "5619112123"}, {"lon": -73.123392, "lat": 7.1436361, "id": "5619112124"}, {"lon": -73.1233235, "lat": 7.1436104, "id": "5619112125"}, {"lon": -73.1232842, "lat": 7.1435656, "id": "5619112126"}, {"lon": -73.1232431, "lat": 7.1435188, "id": "5619112127"}, {"lon": -73.1232046, "lat": 7.1434748, "id": "5619112132"}, {"lon": -73.123166, "lat": 7.1434307, "id": "5619112128"}, {"lon": -73.1231282, "lat": 7.1433877, "id": "5619112129"}, {"lon": -73.1230885, "lat": 7.1433423, "id": "5619112130"}], "tags": {"highway": "residential"}, "id": "588310007"}, {"uid": "", "user": "", "version": 1, "nodes": [{"lon": -73.1235248, "lat": 7.1434567, "id": "5619112133"}, {"lon": -73.1234728, "lat": 7.1433914, "id": "5619112134"}, {"lon": -73.1233905, "lat": 7.143288, "id": "5619112135"}, {"lon": -73.1233443, "lat": 7.14323, "id": "5619112136"}, {"lon": -73.1233067, "lat": 7.1431827, "id": "5619112137"}], "tags": {"highway": "residential"}, "id": "588310012"}, {"uid": "", "user": "", "version": 1, "nodes": [{"lon": -73.1236051, "lat": 7.1436839, "id": "5619112178"}, {"lon": -73.1235812, "lat": 7.1437451, "id": "5619112179"}, {"lon": -73.1235591, "lat": 7.1438016, "id": "1165408107"}, {"lon": -73.1235438, "lat": 7.1438406, "id": "5619112180"}, {"lon": -73.1235126, "lat": 7.1439202, "id": "5619112181"}, {"lon": -73.1234719, "lat": 7.1440243, "id": "5619112182"}, {"lon": -73.1233757, "lat": 7.1442702, "id": "5619112183"}, {"lon": -73.1233196, "lat": 7.1444133, "id": "5619112184"}, {"lon": -73.1232998, "lat": 7.1444641, "id": "5619112185"}], "tags": {"highway": "residential"}, "id": "588310024"}, {"uid": "", "user": "", "version": 1, "nodes": [{"lon": -73.109151, "lat": 7.094652, "id": "839102765"}, {"lon": -73.1099107, "lat": 7.0942377, "id": "5619304549"}], "tags": {"highway": "residential"}, "id": "588336657"}, {"uid": "", "user": "", "version": 1, "nodes": [{"lon": -73.1274806, "lat": 7.095277, "id": "5619407789"}, {"lon": -73.1274079, "lat": 7.0954235, "id": "5619407790"}], "tags": {"highway": "residential"}, "id": "588353395"}, {"uid": "", "user": "", "version": 1, "nodes": [{"lon": -73.1271051, "lat": 7.0954051, "id": "5619407815"}, {"lon": -73.1272093, "lat": 7.0952096, "id": "5619407816"}, {"lon": -73.1273184, "lat": 7.0951741, "id": "5619407817"}, {"lon": -73.1274806, "lat": 7.095277, "id": "5619407789"}], "tags": {"highway": "residential"}, "id": "588353401"}, {"uid": "", "user": "", "version": 1, "nodes": [{"lon": -73.1612868, "lat": 7.0570615, "id": "5619583738"}, {"lon": -73.1615049, "lat": 7.0570875, "id": "5619583739"}, {"lon": -73.1616899, "lat": 7.0570955, "id": "5619583740"}, {"lon": -73.1617972, "lat": 7.0571274, "id": "5619583741"}, {"lon": -73.1618214, "lat": 7.0571727, "id": "5619583742"}, {"lon": -73.1618295, "lat": 7.0572168, "id": "5619583743"}], "tags": {"highway": "residential"}, "id": "588372756"}, {"uid": "", "user": "", "version": 1, "nodes": [{"lon": -73.1471224, "lat": 7.1400087, "id": "5619586731"}, {"lon": -73.1470642, "lat": 7.1399803, "id": "5619586730"}, {"lon": -73.1470619, "lat": 7.139979, "id": "5619586729"}, {"lon": -73.1470642, "lat": 7.1399803, "id": "5619586730"}, {"lon": -73.1471224, "lat": 7.1400087, "id": "5619586731"}], "tags": {"highway": "residential"}, "id": "588373339"}, {"uid": "", "user": "", "version": 1, "nodes": [{"lon": -73.0962892, "lat": 7.1423524, "id": "5619590226"}], "tags": {"highway": "residential"}, "id": "588373929"}, {"uid": "", "user": "", "version": 1, "nodes": [{"lon": -73.1591789, "lat": 7.0569792, "id": "5619589469"}, {"lon": -73.158936, "lat": 7.0569271, "id": "5619589470"}, {"lon": -73.1588394, "lat": 7.0568819, "id": "5619589471"}, {"lon": -73.1587697, "lat": 7.0568047, "id": "5619589472"}, {"lon": -73.158775, "lat": 7.0565225, "id": "5619589473"}, {"lon": -73.1587724, "lat": 7.0563894, "id": "5619589474"}, {"lon": -73.1586999, "lat": 7.056243, "id": "5619589475"}, {"lon": -73.158649, "lat": 7.0560806, "id": "5619589476"}, {"lon": -73.1586275, "lat": 7.0559422, "id": "5619589477"}, {"lon": -73.1585953, "lat": 7.0558278, "id": "5619589478"}, {"lon": -73.1585756, "lat": 7.0556813, "id": "5619589481"}, {"lon": -73.1585741, "lat": 7.0556702, "id": "5619589479"}, {"lon": -73.1585234, "lat": 7.0555319, "id": "5619589480"}], "tags": {"highway": "residential"}, "id": "588373960"}, {"uid": "", "version": 2, "user": "", "tags": {"highway": "residential"}, "id": "588373961"}, {"uid": "", "user": "", "version": 1, "nodes": [{"lon": -73.1581901, "lat": 7.0545778, "id": "5619589495"}, {"lon": -73.158061, "lat": 7.0546768, "id": "5619589496"}, {"lon": -73.1579944, "lat": 7.0547082, "id": "5619589497"}, {"lon": -73.1579723, "lat": 7.0547302, "id": "5619589498"}], "tags": {"highway": "residential"}, "id": "588373962"}, {"uid": "", "user": "", "version": 1, "nodes": [{"lon": -73.1167468, "lat": 7.0854775, "id": "5619600322"}, {"lon": -73.1162318, "lat": 7.0854562, "id": "5619600323"}, {"lon": -73.1158939, "lat": 7.0854509, "id": "5619600324"}, {"lon": -73.1156686, "lat": 7.0854456, "id": "5619600325"}, {"lon": -73.1153679, "lat": 7.0854319, "id": "5619600326"}], "tags": {"highway": "residential"}, "id": "588375323"}, {"uid": "", "user": "", "version": 1, "nodes": [{"lon": -73.1582574, "lat": 7.0562266, "id": "5619601240"}, {"lon": -73.158251, "lat": 7.056409, "id": "5619601241"}, {"lon": -73.1582315, "lat": 7.056666, "id": "5619601272"}, {"lon": -73.1582257, "lat": 7.0567422, "id": "5619601242"}, {"lon": -73.1582637, "lat": 7.056978, "id": "5619601243"}, {"lon": -73.1582358, "lat": 7.0573046, "id": "5409239405"}], "tags": {"highway": "residential"}, "id": "588375466"}, {"uid": "", "user": "", "version": 1, "nodes": [{"lon": -73.1582315, "lat": 7.056666, "id": "5619601272"}, {"lon": -73.1581476, "lat": 7.0567314, "id": "5619601273"}, {"lon": -73.1580846, "lat": 7.0567554, "id": "5619601274"}, {"lon": -73.157996, "lat": 7.056762, "id": "5619601275"}, {"lon": -73.1579679, "lat": 7.056762, "id": "5619601276"}], "tags": {"highway": "residential"}, "id": "588375476"}, {"uid": "", "user": "", "version": 1, "nodes": [{"lon": -73.1582655, "lat": 7.056181, "id": "5619601277"}, {"lon": -73.1582574, "lat": 7.0562266, "id": "5619601240"}], "tags": {"highway": "residential"}, "id": "588375477"}, {"uid": "", "user": "", "version": 1, "nodes": [{"lon": -73.1388368, "lat": 7.1260933, "id": "5619612969"}, {"lon": -73.1388718, "lat": 7.1259668, "id": "5619612970"}], "tags": {"highway": "residential"}, "id": "588377127"}, {"uid": "", "user": "", "version": 1, "nodes": [{"lon": -73.117209, "lat": 7.1461254, "id": "5619613266"}, {"lon": -73.1169603, "lat": 7.1461772, "id": "5619613267"}, {"lon": -73.1169134, "lat": 7.146281, "id": "5619613268"}, {"lon": -73.1168946, "lat": 7.1464061, "id": "5619613269"}], "tags": {"highway": "residential"}, "id": "588377229"}, {"uid": "", "user": "", "version": 1, "nodes": [{"lon": -73.1153679, "lat": 7.0854319, "id": "5619600326"}, {"lon": -73.1140163, "lat": 7.085427, "id": "5619618915"}], "tags": {"highway": "residential"}, "id": "588378057"}, {"uid": "", "user": "", "version": 1, "nodes": [{"lon": -73.1153787, "lat": 7.0847429, "id": "5619618916"}, {"lon": -73.114019, "lat": 7.0847349, "id": "5619618917"}], "tags": {"highway": "residential"}, "id": "588378058"}, {"uid": "", "user": "", "version": 1, "nodes": [{"lon": -73.1699109, "lat": 7.0988459, "id": "5619651034"}, {"lon": -73.1696319, "lat": 7.0995752, "id": "5619651035"}, {"lon": -73.1696159, "lat": 7.1000117, "id": "5619651036"}], "tags": {"highway": "residential"}, "id": "588382082"}, {"uid": "", "user": "", "version": 1, "nodes": [{"lon": -73.1072788, "lat": 7.1219788, "id": "5619669551"}, {"lon": -73.1067131, "lat": 7.1221427, "id": "5619669552"}], "tags": {"highway": "residential"}, "id": "588384334"}, {"uid": "", "user": "", "version": 1, "nodes": [{"lon": -73.1644633, "lat": 7.0590831, "id": "5619676334"}, {"lon": -73.164238, "lat": 7.0591071, "id": "5619676335"}, {"lon": -73.1641656, "lat": 7.059147, "id": "5619676336"}, {"lon": -73.1641434, "lat": 7.0592724, "id": "5619676337"}], "tags": {"highway": "residential"}, "id": "588385532"}, {"uid": "", "user": "", "version": 1, "nodes": [{"lon": -73.1285268, "lat": 7.1407084, "id": "5619976445"}, {"lon": -73.1284052, "lat": 7.140715, "id": "5619976446"}, {"lon": -73.1281991, "lat": 7.1407422, "id": "5619976447"}, {"lon": -73.1280893, "lat": 7.1407799, "id": "5619976451"}, {"lon": -73.1280503, "lat": 7.1407678, "id": "5619976448"}, {"lon": -73.127972, "lat": 7.1407749, "id": "5619976449"}, {"lon": -73.1279258, "lat": 7.1407871, "id": "5619976452"}, {"lon": -73.1278796, "lat": 7.1407992, "id": "5619976450"}, {"lon": -73.1277779, "lat": 7.1408561, "id": "839102798"}, {"lon": -73.1280893, "lat": 7.1407799, "id": "5619976451"}], "tags": {"highway": "residential"}, "id": "588424735"}]