[{"id": "285943061", "version": 5, "uid": "", "user": "", "tags": {"lanes": "2", "highway": "residential", "surface": "concrete"}}, {"id": "349697902", "version": 7, "uid": "", "user": "", "tags": {"highway": "residential"}}, {"id": "362299462", "version": 2, "uid": "", "user": "", "tags": {"lanes": "1.5", "highway": "residential", "surface": "asphalt"}}, {"id": "365825292", "version": 2, "uid": "", "user": "", "tags": {"highway": "residential", "surface": "asphalt"}}, {"id": "365993405", "version": 2, "uid": "", "user": "", "tags": {"highway": "residential"}}, {"id": "365993408", "version": 3, "uid": "", "user": "", "tags": {"highway": "residential"}}, {"id": "366099121", "version": 2, "uid": "", "user": "", "tags": {"highway": "residential", "surface": "asphalt"}}, {"id": "369964696", "version": 4, "uid": "", "user": "", "tags": {"highway": "residential"}}, {"id": "588296540", "version": 2, "uid": "", "user": "", "tags": {"highway": "residential"}}, {"id": "588659159", "version": 2, "uid": "", "user": "", "tags": {"highway": "residential"}}, {"uid": "", "user": "", "tags": {"highway": "residential"}, "nodes": [{"id": "5623770113", "lon": 90.3580105, "lat": 22.6860792}, {"id": "5623770114", "lon": 90.3583056, "lat": 22.6852502}], "id": "588872473", "version": 1}, {"uid": "", "user": "", "tags": {"highway": "residential"}, "nodes": [{"id": "5623770228", "lon": 90.3597969, "lat": 22.6862203}, {"id": "5623770229", "lon": 90.3589198, "lat": 22.6858565}], "id": "588872476", "version": 1}, {"id": "588873546", "version": 2, "uid": "", "user": "", "tags": {"highway": "residential"}}, {"uid": "", "user": "", "tags": {"highway": "residential"}, "nodes": [{"id": "5623797900", "lon": 90.3353458, "lat": 22.6849866}, {"id": "5623797901", "lon": 90.3356892, "lat": 22.6851945}, {"id": "5623797902", "lon": 90.3359842, "lat": 22.6859963}, {"id": "5623797903", "lon": 90.3362632, "lat": 22.6870654}, {"id": "5623797908", "lon": 90.3362951, "lat": 22.6872757}, {"id": "5623797904", "lon": 90.3363172, "lat": 22.6874218}], "id": "588876381", "version": 1}, {"uid": "", "user": "", "tags": {"highway": "residential"}, "nodes": [{"id": "5623797904", "lon": 90.3363172, "lat": 22.6874218}, {"id": "5623797913", "lon": 90.3363791, "lat": 22.6877475}, {"id": "5623797911", "lon": 90.3364267, "lat": 22.6879979}, {"id": "5623797905", "lon": 90.3365171, "lat": 22.6884737}, {"id": "5623797906", "lon": 90.3364671, "lat": 22.6888676}], "id": "588876382", "version": 1}, {"uid": "", "user": "", "tags": {"highway": "residential"}, "nodes": [{"id": "5623797906", "lon": 90.3364671, "lat": 22.6888676}, {"id": "5623797907", "lon": 90.3366852, "lat": 22.6900453}], "id": "588876383", "version": 1}, {"uid": "", "user": "", "tags": {"highway": "residential"}, "nodes": [{"id": "5623797903", "lon": 90.3362632, "lat": 22.6870654}], "id": "588876384", "version": 1}, {"uid": "", "user": "", "tags": {"highway": "residential"}, "nodes": [{"id": "5623797908", "lon": 90.3362951, "lat": 22.6872757}, {"id": "5623797909", "lon": 90.3371621, "lat": 22.6871452}, {"id": "5623797910", "lon": 90.3374119, "lat": 22.6871201}], "id": "588876385", "version": 1}, {"uid": "", "user": "", "tags": {"highway": "residential"}, "nodes": [{"id": "5623797911", "lon": 90.3364267, "lat": 22.6879979}, {"id": "5623797912", "lon": 90.3356086, "lat": 22.6880295}], "id": "588876386", "version": 1}, {"uid": "", "user": "", "tags": {"highway": "residential"}, "nodes": [{"id": "5623797913", "lon": 90.3363791, "lat": 22.6877475}, {"id": "5623797914", "lon": 90.337153, "lat": 22.6876858}, {"id": "5623797915", "lon": 90.3372666, "lat": 22.687908}], "id": "588876387", "version": 1}, {"uid": "", "user": "", "tags": {"highway": "residential"}, "nodes": [{"id": "5624008821", "lon": 90.3495734, "lat": 22.7115115}, {"id": "5624008822", "lon": 90.3498764, "lat": 22.7115263}, {"id": "5624008823", "lon": 90.3501994, "lat": 22.711564}], "id": "588909642", "version": 1}, {"uid": "", "user": "", "tags": {"highway": "residential"}, "nodes": [{"id": "5624008824", "lon": 90.3491978, "lat": 22.7123379}, {"id": "5624008825", "lon": 90.3498264, "lat": 22.7125179}], "id": "588909643", "version": 1}, {"uid": "", "user": "", "tags": {"highway": "residential"}, "nodes": [{"id": "5624008826", "lon": 90.3506167, "lat": 22.7117539}], "id": "588909644", "version": 1}, {"uid": "", "user": "", "tags": {"highway": "residential"}, "nodes": [{"id": "5624008827", "lon": 90.3502891, "lat": 22.7126902}, {"id": "5624008828", "lon": 90.3505524, "lat": 22.7126917}, {"id": "5624008829", "lon": 90.3506194, "lat": 22.7125902}, {"id": "5624008830", "lon": 90.3506892, "lat": 22.7125704}, {"id": "5624008831", "lon": 90.3507428, "lat": 22.712521}], "id": "588909645", "version": 1}, {"uid": "", "user": "", "tags": {"highway": "residential"}, "nodes": [{"id": "5624266249", "lon": 90.3465213, "lat": 22.6661392}, {"id": "5624266250", "lon": 90.3464247, "lat": 22.666102}, {"id": "5624266251", "lon": 90.3463146, "lat": 22.6660002}], "id": "588951459", "version": 1}, {"uid": "", "user": "", "tags": {"highway": "residential"}, "nodes": [{"id": "5624291854", "lon": 90.3549954, "lat": 22.673794}, {"id": "5624291857", "lon": 90.3550151, "lat": 22.6737539}, {"id": "5624291853", "lon": 90.3551003, "lat": 22.6735802}], "id": "588953805", "version": 1}, {"uid": "", "user": "", "tags": {"highway": "residential"}, "nodes": [{"id": "5624291854", "lon": 90.3549954, "lat": 22.673794}, {"id": "5624291855", "lon": 90.3546631, "lat": 22.6738005}, {"id": "5624291856", "lon": 90.3546202, "lat": 22.6740183}], "id": "588953806", "version": 1}, {"uid": "", "user": "", "tags": {"highway": "residential"}, "nodes": [{"id": "5624291857", "lon": 90.3550151, "lat": 22.6737539}, {"id": "5624291858", "lon": 90.3555778, "lat": 22.6737782}], "id": "588953807", "version": 1}, {"uid": "", "user": "", "tags": {"highway": "residential"}, "nodes": [{"id": "5624334312", "lon": 90.3524612, "lat": 22.6793464}, {"id": "5624334313", "lon": 90.3525816, "lat": 22.6793291}, {"id": "5624334314", "lon": 90.3526925, "lat": 22.6799181}, {"id": "5624309386", "lon": 90.3526951, "lat": 22.6799378}, {"id": "5624334315", "lon": 90.3531581, "lat": 22.6797787}], "id": "588959841", "version": 1}, {"uid": "", "user": "", "tags": {"highway": "residential"}, "nodes": [{"id": "5624334316", "lon": 90.3531172, "lat": 22.6794698}, {"id": "5624334317", "lon": 90.3532808, "lat": 22.6803277}], "id": "588959842", "version": 1}, {"uid": "", "user": "", "tags": {"highway": "residential"}, "nodes": [{"id": "5624309386", "lon": 90.3526951, "lat": 22.6799378}], "id": "588959843", "version": 1}, {"uid": "", "user": "", "tags": {"highway": "residential"}, "nodes": [{"id": "5624159246", "lon": 90.351747, "lat": 22.7154615}, {"id": "5624363698", "lon": 90.3517378, "lat": 22.7159105}, {"id": "5624363696", "lon": 90.3517292, "lat": 22.7163334}, {"id": "5624363697", "lon": 90.35152, "lat": 22.7163285}], "id": "588962433", "version": 1}, {"uid": "", "user": "", "tags": {"highway": "residential"}, "nodes": [{"id": "5624363698", "lon": 90.3517378, "lat": 22.7159105}, {"id": "5624363699", "lon": 90.3515361, "lat": 22.7159005}], "id": "588962434", "version": 1}]