[{"id": "234752690", "uid": "", "tags": {"source": "bingsat", "highway": "tertiary"}, "version": 4, "user": ""}, {"id": "285943056", "uid": "", "tags": {"surface": "asphalt", "highway": "tertiary"}, "version": 3, "user": ""}, {"id": "331112694", "uid": "", "tags": {"surface": "asphalt", "highway": "tertiary", "name:en": "Kaunia Main Road", "alt_name:en": "Paschim Kaunia Road", "oneway": "no", "name": "\u0995\u09be\u0989\u09a8\u09bf\u09af\u09bc\u09be \u09aa\u09cd\u09b0\u09a7\u09be\u09a8 \u09b8\u09a1\u09bc\u0995"}, "version": 12, "user": ""}, {"id": "349697909", "uid": "", "tags": {"highway": "tertiary", "name": "Lakhutia Rd"}, "version": 5, "user": ""}, {"id": "513973215", "uid": "", "tags": {"highway": "tertiary", "name": "Lakhutia Rd"}, "version": 2, "user": ""}, {"uid": "", "version": 1, "user": "", "id": "588353333", "nodes": [{"id": "5619407653", "lat": 22.7234267, "lon": 90.3222174}, {"id": "5619407654", "lat": 22.7235908, "lon": 90.322423}, {"id": "5619407655", "lat": 22.7247507, "lon": 90.3224586}, {"id": "5619407656", "lat": 22.7248113, "lon": 90.3223874}, {"id": "5619402819", "lat": 22.7248113, "lon": 90.3223586}], "tags": {"highway": "tertiary"}}, {"id": "588381452", "uid": "", "tags": {"highway": "tertiary"}, "version": 2, "user": ""}, {"uid": "", "version": 1, "user": "", "id": "588381453", "nodes": [{"id": "5619076648", "lat": 22.6494994, "lon": 90.3424221}, {"id": "5619648154", "lat": 22.6491122, "lon": 90.3419435}], "tags": {"highway": "tertiary"}}]