[{"user": "eetlah", "version": 2, "id": "563438488", "uid": "8159197", "tags": {"highway": "track"}}, {"user": "Ira Sanna Emilia", "version": 2, "id": "565502831", "uid": "8160344", "tags": {"highway": "track"}}, {"user": "rivw", "version": 2, "id": "571444469", "uid": "1890760", "tags": {"highway": "track"}}, {"user": "rivw", "version": 5, "id": "571754694", "uid": "1890760", "tags": {"highway": "track"}}, {"user": "rivw", "version": 3, "id": "571754716", "uid": "1890760", "tags": {"highway": "track"}}, {"user": "Teliamapper", "version": 1, "uid": "8099743", "nodes": [{"lat": -9.891118, "id": "5574216050", "lon": 33.3810208}, {"lat": -9.8911592, "id": "5574319631", "lon": 33.3810732}, {"lat": -9.8912033, "id": "5574319632", "lon": 33.3812385}, {"lat": -9.8912202, "id": "5574319633", "lon": 33.3814794}, {"lat": -9.8912575, "id": "5574319634", "lon": 33.381686}, {"lat": -9.891288, "id": "5574319635", "lon": 33.3818684}, {"lat": -9.8914101, "id": "5574319636", "lon": 33.3818409}], "id": "582999372", "tags": {"highway": "track"}}]