[{"user": "erno", "version": 3, "id": "169831140", "tags": {"highway": "residential"}, "uid": "69016"}, {"user": "erno", "version": 5, "id": "169831144", "tags": {"highway": "residential"}, "uid": "69016"}, {"user": "ZHANGPALEX", "version": 4, "id": "489874858", "tags": {"highway": "residential"}, "uid": "7659922"}, {"user": "ZHANGPALEX", "version": 4, "id": "489874859", "tags": {"highway": "residential"}, "uid": "7659922"}, {"user": "ZHANGPALEX", "version": 4, "id": "489876958", "tags": {"highway": "residential"}, "uid": "7659922"}, {"user": "ZHANGPALEX", "version": 4, "id": "489879058", "tags": {"highway": "residential"}, "uid": "7659922"}, {"user": "Juktavis", "version": 3, "id": "557399861", "tags": {"highway": "residential"}, "uid": "7494027"}, {"user": "ZHANGPALEX", "version": 2, "id": "560146585", "tags": {"highway": "residential"}, "uid": "7659922"}, {"user": "Juktavis", "version": 2, "id": "560311841", "tags": {"highway": "residential"}, "uid": "7494027"}, {"user": "Juktavis", "version": 2, "id": "560311847", "tags": {"highway": "residential"}, "uid": "7494027"}, {"user": "Juktavis", "version": 3, "id": "560311849", "tags": {"highway": "residential"}, "uid": "7494027"}, {"user": "erno", "version": 2, "id": "560490251", "tags": {"highway": "residential"}, "uid": "69016"}, {"user": "ZHANGPALEX", "version": 2, "id": "565556950", "tags": {"highway": "residential", "surface": "unpaved"}, "uid": "7659922"}]