[{"user": "erno", "version": 8, "id": "169831160", "tags": {"highway": "unclassified", "surface": "unpaved", "source": "Bing/DigitalGlobe Premium"}, "uid": "69016"}, {"user": "papi123nwa", "version": 9, "id": "169833446", "tags": {"highway": "unclassified", "surface": "unpaved"}, "uid": "7696254"}, {"user": "ZHANGPALEX", "version": 10, "id": "187398750", "tags": {"highway": "unclassified", "surface": "unpaved"}, "uid": "7659922"}, {"user": "ZHANGPALEX", "version": 9, "id": "187398756", "tags": {"highway": "unclassified", "surface": "unpaved"}, "uid": "7659922"}, {"user": "Juktavis", "version": 8, "id": "199053589", "tags": {"highway": "unclassified"}, "uid": "7494027"}, {"user": "Juktavis", "version": 3, "id": "199055520", "tags": {"highway": "unclassified"}, "uid": "7494027"}, {"user": "Salla Multim\u00e4ki", "version": 20, "id": "286786925", "tags": {"highway": "unclassified", "surface": "unpaved"}, "uid": "4610557"}, {"user": "erno", "version": 9, "id": "286786971", "tags": {"highway": "unclassified", "surface": "unpaved"}, "uid": "69016"}, {"user": "ZHANGPALEX", "version": 17, "id": "345720495", "tags": {"highway": "unclassified", "surface": "unpaved"}, "uid": "7659922"}, {"user": "lentillian", "version": 14, "id": "437277525", "tags": {"highway": "unclassified", "surface": "unpaved", "source": "msd.or.tz & deliver.jsi.com", "source:date": "2014..2015"}, "uid": "7158975"}, {"user": "Anna_H", "version": 13, "id": "437279025", "tags": {"highway": "unclassified", "surface": "unpaved", "source": "msd.or.tz & deliver.jsi.com", "source:date": "2014..2015"}, "uid": "7696216"}, {"user": "papi123nwa", "version": 11, "id": "448134291", "tags": {"highway": "unclassified", "surface": "unpaved", "source": "msd.or.tz & deliver.jsi.com", "source:date": "2014..2015"}, "uid": "7696254"}, {"user": "ElinaN", "version": 12, "id": "448134297", "tags": {"highway": "unclassified", "surface": "paved", "source": "msd.or.tz & deliver.jsi.com", "source:date": "2014..2015"}, "uid": "5811250"}, {"user": "ZHANGPALEX", "version": 3, "id": "476868957", "tags": {"highway": "unclassified"}, "uid": "7659922"}, {"user": "ZHANGPALEX", "version": 2, "id": "476868959", "tags": {"highway": "unclassified"}, "uid": "7659922"}, {"user": "ZHANGPALEX", "version": 3, "id": "476868960", "tags": {"highway": "unclassified"}, "uid": "7659922"}, {"user": "ZHANGPALEX", "version": 6, "id": "478313843", "tags": {"highway": "unclassified", "surface": "unpaved", "source": "Bing"}, "uid": "7659922"}, {"user": "ZHANGPALEX", "version": 9, "id": "479332340", "tags": {"highway": "unclassified", "source": "Bing"}, "uid": "7659922"}, {"user": "ZHANGPALEX", "version": 3, "id": "479345218", "tags": {"highway": "unclassified", "surface": "unpaved"}, "uid": "7659922"}, {"user": "ZHANGPALEX", "version": 3, "id": "479345492", "tags": {"highway": "unclassified", "surface": "unpaved"}, "uid": "7659922"}, {"user": "ZHANGPALEX", "version": 5, "id": "479456952", "tags": {"highway": "unclassified", "surface": "unpaved"}, "uid": "7659922"}, {"user": "ZHANGPALEX", "version": 4, "id": "479456953", "tags": {"highway": "unclassified", "surface": "unpaved"}, "uid": "7659922"}, {"user": "ZHANGPALEX", "version": 4, "id": "479456954", "tags": {"highway": "unclassified", "surface": "unpaved"}, "uid": "7659922"}, {"user": "ZHANGPALEX", "version": 4, "id": "479456955", "tags": {"highway": "unclassified", "surface": "unpaved"}, "uid": "7659922"}, {"user": "ZHANGPALEX", "version": 4, "id": "479456956", "tags": {"highway": "unclassified", "surface": "unpaved"}, "uid": "7659922"}, {"user": "ZHANGPALEX", "version": 7, "id": "484222829", "tags": {"highway": "unclassified", "surface": "unpaved"}, "uid": "7659922"}, {"user": "Hassan Dia", "version": 3, "id": "486118304", "tags": {"highway": "unclassified"}, "uid": "7020647"}, {"user": "ZHANGPALEX", "version": 5, "id": "486218986", "tags": {"highway": "unclassified", "surface": "2"}, "uid": "7659922"}, {"user": "ZHANGPALEX", "version": 2, "id": "486218987", "tags": {"highway": "unclassified"}, "uid": "7659922"}, {"user": "ZHANGPALEX", "version": 3, "id": "486218993", "tags": {"highway": "unclassified"}, "uid": "7659922"}, {"user": "ZHANGPALEX", "version": 3, "id": "486228635", "tags": {"highway": "unclassified"}, "uid": "7659922"}, {"user": "ZHANGPALEX", "version": 4, "id": "488433982", "tags": {"highway": "unclassified"}, "uid": "7659922"}, {"user": "ZHANGPALEX", "version": 4, "id": "489650590", "tags": {"highway": "unclassified"}, "uid": "7659922"}, {"user": "ZHANGPALEX", "version": 2, "id": "490419510", "tags": {"highway": "unclassified"}, "uid": "7659922"}, {"user": "ZHANGPALEX", "version": 4, "id": "493658555", "tags": {"highway": "unclassified", "surface": "unpaved"}, "uid": "7659922"}, {"user": "ZHANGPALEX", "version": 3, "id": "494395813", "tags": {"highway": "unclassified"}, "uid": "7659922"}, {"user": "Dalador", "version": 3, "id": "495974159", "tags": {"highway": "unclassified"}, "uid": "7685852"}, {"user": "Marvin de Hont", "version": 7, "id": "510262156", "tags": {"highway": "unclassified"}, "uid": "6616734"}, {"user": "ElinaN", "version": 2, "id": "555704232", "tags": {"highway": "unclassified"}, "uid": "5811250"}, {"user": "Aaltis", "version": 3, "id": "555704238", "tags": {"highway": "unclassified", "surface": "unpaved"}, "uid": "7696127"}, {"user": "ElinaN", "version": 3, "id": "555704240", "tags": {"highway": "unclassified"}, "uid": "5811250"}, {"user": "Dalador", "version": 4, "id": "557396353", "tags": {"highway": "unclassified"}, "uid": "7685852"}, {"user": "Luoteiskaira", "version": 11, "id": "559119731", "tags": {"highway": "unclassified"}, "uid": "4723427"}, {"user": "Juktavis", "version": 2, "id": "559499074", "tags": {"highway": "unclassified"}, "uid": "7494027"}, {"user": "Juktavis", "version": 2, "id": "559509764", "tags": {"highway": "unclassified"}, "uid": "7494027"}, {"user": "Juktavis", "version": 3, "id": "559509770", "tags": {"highway": "unclassified"}, "uid": "7494027"}, {"user": "erno", "version": 3, "id": "559515105", "tags": {"highway": "unclassified"}, "uid": "69016"}, {"user": "erno", "version": 7, "id": "559529581", "tags": {"highway": "unclassified", "surface": "unpaved"}, "uid": "69016"}, {"user": "Juktavis", "version": 3, "id": "560113423", "tags": {"highway": "unclassified"}, "uid": "7494027"}, {"user": "Juktavis", "version": 2, "id": "560187461", "tags": {"highway": "unclassified"}, "uid": "7494027"}, {"user": "Juktavis", "version": 2, "id": "560187462", "tags": {"highway": "unclassified"}, "uid": "7494027"}, {"user": "Marvin de Hont", "version": 5, "id": "560232425", "tags": {"highway": "unclassified"}, "uid": "6616734"}, {"user": "Marvin de Hont", "version": 5, "id": "560232426", "tags": {"highway": "unclassified"}, "uid": "6616734"}, {"user": "erno", "version": 2, "id": "560490249", "tags": {"highway": "unclassified"}, "uid": "69016"}, {"user": "erno", "version": 2, "id": "560490250", "tags": {"highway": "unclassified"}, "uid": "69016"}, {"user": "Luoteiskaira", "version": 2, "id": "560490256", "tags": {"highway": "unclassified"}, "uid": "4723427"}, {"user": "Salla Multim\u00e4ki", "version": 5, "id": "560538585", "tags": {"highway": "unclassified"}, "uid": "4610557"}, {"user": "Marvin de Hont", "version": 3, "id": "560586280", "tags": {"highway": "unclassified", "surface": "unpaved"}, "uid": "6616734"}, {"user": "Marvin de Hont", "version": 2, "id": "560586344", "tags": {"highway": "unclassified", "surface": "unpaved"}, "uid": "6616734"}, {"user": "Salla Multim\u00e4ki", "version": 3, "id": "560699602", "tags": {"highway": "unclassified"}, "uid": "4610557"}, {"user": "Salla Multim\u00e4ki", "version": 3, "id": "560699605", "tags": {"highway": "unclassified"}, "uid": "4610557"}, {"user": "Salla Multim\u00e4ki", "version": 2, "id": "560716382", "tags": {"highway": "unclassified"}, "uid": "4610557"}, {"user": "Marvin de Hont", "version": 7, "id": "560767499", "tags": {"highway": "unclassified", "surface": "unpaved"}, "uid": "6616734"}, {"user": "Marvin de Hont", "version": 2, "id": "560769584", "tags": {"highway": "unclassified", "surface": "unpaved"}, "uid": "6616734"}, {"user": "Marvin de Hont", "version": 2, "id": "560770035", "tags": {"highway": "unclassified", "surface": "unpaved"}, "uid": "6616734"}, {"user": "Marvin de Hont", "version": 3, "id": "560770036", "tags": {"highway": "unclassified"}, "uid": "6616734"}, {"user": "Marvin de Hont", "version": 2, "id": "560771396", "tags": {"highway": "unclassified"}, "uid": "6616734"}, {"user": "Sweetnut", "version": 3, "id": "560773300", "tags": {"highway": "unclassified"}, "uid": "7696275"}, {"user": "Juktavis", "version": 2, "id": "560829063", "tags": {"highway": "unclassified"}, "uid": "7494027"}, {"user": "Marvin de Hont", "version": 2, "id": "561072853", "tags": {"highway": "unclassified"}, "uid": "6616734"}, {"user": "Salla Multim\u00e4ki", "version": 3, "id": "561111459", "tags": {"highway": "unclassified"}, "uid": "4610557"}, {"user": "Salla Multim\u00e4ki", "version": 2, "id": "561111473", "tags": {"highway": "unclassified"}, "uid": "4610557"}, {"user": "ZHANGPALEX", "version": 4, "id": "561123404", "tags": {"highway": "unclassified", "surface": "unpaved"}, "uid": "7659922"}, {"user": "ZHANGPALEX", "version": 2, "id": "561337818", "tags": {"highway": "unclassified"}, "uid": "7659922"}, {"user": "ZHANGPALEX", "version": 2, "id": "561337820", "tags": {"highway": "unclassified"}, "uid": "7659922"}, {"user": "ZHANGPALEX", "version": 2, "id": "561337821", "tags": {"highway": "unclassified"}, "uid": "7659922"}, {"user": "Marvin de Hont", "version": 2, "id": "561366177", "tags": {"highway": "unclassified"}, "uid": "6616734"}, {"user": "Marvin de Hont", "version": 2, "id": "561366188", "tags": {"highway": "unclassified"}, "uid": "6616734"}, {"user": "markbegbie", "version": 2, "id": "561567687", "tags": {"highway": "unclassified"}, "uid": "339912"}, {"user": "markbegbie", "version": 2, "id": "561567688", "tags": {"highway": "unclassified"}, "uid": "339912"}, {"user": "markbegbie", "version": 2, "id": "561567690", "tags": {"highway": "unclassified"}, "uid": "339912"}, {"user": "markbegbie", "version": 2, "id": "561570224", "tags": {"highway": "unclassified"}, "uid": "339912"}, {"user": "markbegbie", "version": 2, "id": "561570229", "tags": {"highway": "unclassified"}, "uid": "339912"}, {"user": "markbegbie", "version": 2, "id": "561570231", "tags": {"highway": "unclassified"}, "uid": "339912"}, {"user": "Marvin de Hont", "version": 2, "id": "561751724", "tags": {"highway": "unclassified"}, "uid": "6616734"}, {"user": "VuokkoH", "version": 3, "id": "561992053", "tags": {"highway": "unclassified"}, "uid": "3401745"}, {"user": "VuokkoH", "version": 3, "id": "561992054", "tags": {"highway": "unclassified"}, "uid": "3401745"}, {"user": "Anna_H", "version": 2, "id": "561992055", "tags": {"highway": "unclassified"}, "uid": "7696216"}, {"user": "Anna_H", "version": 3, "id": "561992056", "tags": {"highway": "unclassified"}, "uid": "7696216"}, {"user": "Marvin de Hont", "version": 6, "id": "562328033", "tags": {"highway": "unclassified", "surface": "unpaved"}, "uid": "6616734"}, {"user": "MarkoKallio", "version": 3, "id": "562329085", "tags": {"highway": "unclassified", "surface": "unpaved", "tracktype": "grade3"}, "uid": "3686638"}, {"user": "MarkoKallio", "version": 3, "id": "562329178", "tags": {"highway": "unclassified", "surface": "unpaved", "tracktype": "grade3"}, "uid": "3686638"}, {"user": "MarkoKallio", "version": 2, "id": "562329218", "tags": {"highway": "unclassified"}, "uid": "3686638"}, {"user": "LochinPierre", "version": 4, "id": "562332018", "tags": {"highway": "unclassified"}, "uid": "7692804"}, {"user": "MarkoKallio", "version": 2, "id": "562609132", "tags": {"highway": "unclassified", "surface": "unpaved33"}, "uid": "3686638"}, {"user": "MarkoKallio", "version": 2, "id": "562609159", "tags": {"highway": "unclassified", "surface": "unpaved"}, "uid": "3686638"}, {"user": "papi123nwa", "version": 3, "id": "562609163", "tags": {"highway": "unclassified", "surface": "unpaved"}, "uid": "7696254"}, {"user": "papi123nwa", "version": 2, "id": "562609164", "tags": {"highway": "unclassified", "surface": "unpaved"}, "uid": "7696254"}, {"user": "VuokkoH", "version": 2, "id": "562766638", "tags": {"highway": "unclassified"}, "uid": "3401745"}, {"user": "Aaltis", "version": 4, "id": "563033686", "tags": {"highway": "unclassified", "surface": "unpaved"}, "uid": "7696127"}, {"user": "ZHANGPALEX", "version": 3, "id": "563047862", "tags": {"highway": "unclassified", "surface": "unpaved"}, "uid": "7659922"}, {"user": "ZHANGPALEX", "version": 3, "id": "565830428", "tags": {"highway": "unclassified", "surface": "unpaved"}, "uid": "7659922"}, {"id": "566036193", "uid": "7659922", "user": "ZHANGPALEX", "version": 1, "tags": {"highway": "unclassified", "surface": "unpaved"}, "nodes": [{"lat": -2.5350669, "lon": 33.6795265, "id": "5450300354"}]}, {"user": "Aaltis", "version": 2, "id": "566047265", "tags": {"highway": "unclassified"}, "uid": "7696127"}, {"user": "Aaltis", "version": 2, "id": "566047269", "tags": {"highway": "unclassified"}, "uid": "7696127"}, {"user": "Aaltis", "version": 2, "id": "566047273", "tags": {"highway": "unclassified"}, "uid": "7696127"}, {"id": "566047275", "uid": "7696127", "user": "Aaltis", "version": 1, "tags": {"highway": "unclassified"}, "nodes": [{"lat": -2.9212324, "lon": 33.4571386, "id": "5450456386"}, {"lat": -2.9212943, "lon": 33.4571173, "id": "5450456387"}, {"lat": -2.9213526, "lon": 33.4571103, "id": "5450456388"}, {"lat": -2.9214251, "lon": 33.4570943, "id": "5450456389"}, {"lat": -2.9214692, "lon": 33.457082, "id": "5450456390"}, {"lat": -2.9215682, "lon": 33.4570643, "id": "5450456391"}, {"lat": -2.9216742, "lon": 33.4570536, "id": "5450456392"}, {"lat": -2.9217273, "lon": 33.4570324, "id": "5450456393"}, {"lat": -2.9217785, "lon": 33.4570182, "id": "5450456394"}, {"lat": -2.9218047, "lon": 33.4569887, "id": "5450456395"}]}, {"id": "566047276", "uid": "7696127", "user": "Aaltis", "version": 1, "tags": {"highway": "unclassified"}, "nodes": [{"lat": -2.9310162, "lon": 33.4611945, "id": "5450456396"}, {"lat": -2.9309569, "lon": 33.4612538, "id": "5450456397"}, {"lat": -2.9308401, "lon": 33.4612914, "id": "5450456398"}, {"lat": -2.9306919, "lon": 33.461375, "id": "5450456399"}, {"lat": -2.9305812, "lon": 33.4614398, "id": "5450456400"}, {"lat": -2.9305729, "lon": 33.4615694, "id": "5450456401"}, {"lat": -2.9305687, "lon": 33.4617115, "id": "5450456402"}, {"lat": -2.9305875, "lon": 33.4617846, "id": "5450456403"}, {"lat": -2.9306167, "lon": 33.4618787, "id": "5450456404"}, {"lat": -2.9305812, "lon": 33.4619184, "id": "5450456405"}, {"lat": -2.9305771, "lon": 33.4619602, "id": "5450456406"}, {"lat": -2.9306063, "lon": 33.4620354, "id": "5450456407"}, {"lat": -2.9306188, "lon": 33.4620898, "id": "5450456408"}, {"lat": -2.9306042, "lon": 33.4621462, "id": "5450456409"}, {"lat": -2.9306459, "lon": 33.4622549, "id": "5450456410"}, {"lat": -2.9306688, "lon": 33.4623036, "id": "5450456411"}, {"lat": -2.9307083, "lon": 33.4624221, "id": "5450456412"}, {"lat": -2.9307157, "lon": 33.4625134, "id": "5450456413"}, {"lat": -2.9307576, "lon": 33.4625998, "id": "5450456414"}, {"lat": -2.9307798, "lon": 33.462701, "id": "5450456415"}, {"lat": -2.9308143, "lon": 33.4627701, "id": "5450456416"}, {"lat": -2.9308143, "lon": 33.4628491, "id": "5450456417"}, {"lat": -2.9308354, "lon": 33.4628771, "id": "5450456418"}, {"lat": -2.9308559, "lon": 33.4628669, "id": "5450456419"}, {"lat": -2.9309015, "lon": 33.462839, "id": "5450456420"}, {"lat": -2.9309376, "lon": 33.4628382, "id": "5450456621"}, {"lat": -2.9309572, "lon": 33.4628392, "id": "5450456622"}, {"lat": -2.9310065, "lon": 33.4628145, "id": "5450456623"}, {"lat": -2.9310829, "lon": 33.4628096, "id": "5450456624"}, {"lat": -2.9313438, "lon": 33.4628489, "id": "5450456625"}, {"lat": -2.9315558, "lon": 33.4628612, "id": "5450456626"}, {"lat": -2.931684, "lon": 33.462881, "id": "5450456627"}, {"lat": -2.931721, "lon": 33.4628686, "id": "5450456628"}, {"lat": -2.931753, "lon": 33.4628365, "id": "5450456629"}, {"lat": -2.9318317, "lon": 33.4627769, "id": "5450456630"}, {"lat": -2.9319039, "lon": 33.4627351, "id": "5450456631"}, {"lat": -2.9319761, "lon": 33.4626805, "id": "5450456632"}, {"lat": -2.9320268, "lon": 33.4626386, "id": "5450456633"}, {"lat": -2.9320648, "lon": 33.4626044, "id": "5450456634"}, {"lat": -2.9320889, "lon": 33.4625879, "id": "5450456635"}, {"lat": -2.9321531, "lon": 33.4625482, "id": "5450456636"}]}, {"id": "566047277", "uid": "7696127", "user": "Aaltis", "version": 1, "tags": {"highway": "unclassified"}, "nodes": [{"lat": -2.9316508, "lon": 33.4615776, "id": "5450456637"}, {"lat": -2.9316483, "lon": 33.4616411, "id": "5450456638"}, {"lat": -2.9316368, "lon": 33.4616766, "id": "5450456639"}, {"lat": -2.9315583, "lon": 33.4616956, "id": "5450456640"}, {"lat": -2.9314531, "lon": 33.4617565, "id": "5450456641"}, {"lat": -2.93141, "lon": 33.4617819, "id": "5450456642"}, {"lat": -2.9313733, "lon": 33.461825, "id": "5450456643"}, {"lat": -2.9313416, "lon": 33.4619139, "id": "5450456644"}, {"lat": -2.9313394, "lon": 33.4619383, "id": "5450456645"}, {"lat": -2.9312882, "lon": 33.4619843, "id": "5450456646"}, {"lat": -2.9312617, "lon": 33.4621258, "id": "5450456647"}, {"lat": -2.9312051, "lon": 33.4622143, "id": "5450456648"}, {"lat": -2.9311592, "lon": 33.4622214, "id": "5450456649"}, {"lat": -2.9310955, "lon": 33.4622391, "id": "5450456650"}, {"lat": -2.9310425, "lon": 33.4622391, "id": "5450456651"}]}, {"id": "566049006", "uid": "4610557", "user": "Salla Multim\u00e4ki", "version": 1, "tags": {"highway": "unclassified"}, "nodes": [{"lat": -2.8983686, "lon": 33.5090215, "id": "5450473786"}, {"lat": -2.8981979, "lon": 33.5081501, "id": "5450473787"}, {"lat": -2.8983521, "lon": 33.5068816, "id": "5450473788"}, {"lat": -2.898297, "lon": 33.5064459, "id": "5450473789"}]}, {"id": "566049415", "uid": "4723427", "user": "Luoteiskaira", "version": 1, "tags": {"highway": "unclassified"}, "nodes": [{"lat": -2.9426819, "lon": 33.5374259, "id": "5450476819"}, {"lat": -2.9422024, "lon": 33.5374499, "id": "5450476820"}, {"lat": -2.9416701, "lon": 33.5375075, "id": "5450476821"}, {"lat": -2.9412961, "lon": 33.5376852, "id": "5450476822"}, {"lat": -2.9407927, "lon": 33.5378772, "id": "5450476823"}, {"lat": -2.9405241, "lon": 33.5379588, "id": "5450476824"}, {"lat": -2.9397365, "lon": 33.5378196, "id": "5450476825"}, {"lat": -2.9390412, "lon": 33.5377092, "id": "5450476826"}, {"lat": -2.9383906, "lon": 33.5375747, "id": "5450476827"}, {"lat": -2.9380837, "lon": 33.5375795, "id": "5450476828"}, {"lat": -2.9378583, "lon": 33.5375123, "id": "5450476829"}, {"lat": -2.9375035, "lon": 33.5375171, "id": "5450476830"}, {"lat": -2.9369377, "lon": 33.5374787, "id": "5450476831"}, {"lat": -2.9365253, "lon": 33.5375747, "id": "5450476832"}, {"lat": -2.9361273, "lon": 33.5375411, "id": "5450476833"}, {"lat": -2.935667, "lon": 33.5376515, "id": "5450476834"}, {"lat": -2.9354033, "lon": 33.5377092, "id": "5450476835"}, {"lat": -2.9350533, "lon": 33.5376083, "id": "5450476836"}]}, {"id": "566049416", "uid": "4723427", "user": "Luoteiskaira", "version": 1, "tags": {"highway": "unclassified"}, "nodes": [{"lat": -2.9412961, "lon": 33.5376852, "id": "5450476822"}, {"lat": -2.9412644, "lon": 33.5372223, "id": "5450476837"}, {"lat": -2.9412075, "lon": 33.5365678, "id": "5450476838"}, {"lat": -2.9411629, "lon": 33.5361775, "id": "5450476839"}, {"lat": -2.9411588, "lon": 33.5357533, "id": "5450476840"}, {"lat": -2.9411629, "lon": 33.5351679, "id": "5450476841"}, {"lat": -2.940968, "lon": 33.5348549, "id": "5450476842"}, {"lat": -2.9407975, "lon": 33.5345093, "id": "5450476843"}, {"lat": -2.9406919, "lon": 33.5339279, "id": "5450476844"}, {"lat": -2.9405701, "lon": 33.5333303, "id": "5450476845"}, {"lat": -2.9403961, "lon": 33.5326388, "id": "5450476846"}]}, {"id": "566049417", "uid": "4723427", "user": "Luoteiskaira", "version": 1, "tags": {"highway": "unclassified"}, "nodes": [{"lat": -2.9411629, "lon": 33.5351679, "id": "5450476841"}, {"lat": -2.9411954, "lon": 33.534928, "id": "5450476847"}, {"lat": -2.9413231, "lon": 33.5349072, "id": "5450476854"}, {"lat": -2.9415202, "lon": 33.5348752, "id": "5450476848"}, {"lat": -2.9419587, "lon": 33.5348752, "id": "5450476849"}, {"lat": -2.9424581, "lon": 33.5348711, "id": "5450476850"}, {"lat": -2.9427382, "lon": 33.5348345, "id": "5450476851"}, {"lat": -2.9429737, "lon": 33.5346557, "id": "5450476852"}, {"lat": -2.9430711, "lon": 33.5346109, "id": "5450476853"}]}, {"id": "566049419", "uid": "4723427", "user": "Luoteiskaira", "version": 1, "tags": {"highway": "unclassified"}, "nodes": [{"lat": -2.9430711, "lon": 33.5346109, "id": "5450476853"}, {"lat": -2.9432904, "lon": 33.534493, "id": "5450476861"}, {"lat": -2.943534, "lon": 33.534306, "id": "5450476862"}, {"lat": -2.9437979, "lon": 33.5341759, "id": "5450476863"}, {"lat": -2.9440456, "lon": 33.534054, "id": "5450476864"}, {"lat": -2.9442323, "lon": 33.5340174, "id": "5450476865"}, {"lat": -2.944473, "lon": 33.5337775, "id": "5450476866"}, {"lat": -2.9446801, "lon": 33.5335986, "id": "5450476867"}, {"lat": -2.9447938, "lon": 33.5334563, "id": "5450476868"}, {"lat": -2.9449521, "lon": 33.5332815, "id": "5450476869"}, {"lat": -2.9451186, "lon": 33.5331433, "id": "5450476870"}, {"lat": -2.9452404, "lon": 33.5330173, "id": "5450476871"}, {"lat": -2.9453622, "lon": 33.53294, "id": "5450476872"}, {"lat": -2.9454921, "lon": 33.5328221, "id": "5450476873"}]}, {"id": "566050144", "uid": "7696127", "user": "Aaltis", "version": 1, "tags": {"highway": "unclassified"}, "nodes": [{"lat": -2.931684, "lon": 33.462881, "id": "5450456627"}, {"lat": -2.9317991, "lon": 33.4629478, "id": "5450483278"}, {"lat": -2.9318455, "lon": 33.4629868, "id": "5450483279"}]}, {"user": "Sweetnut", "version": 2, "id": "566050154", "tags": {"highway": "unclassified"}, "uid": "7696275"}, {"user": "Sweetnut", "version": 2, "id": "566050366", "tags": {"highway": "unclassified"}, "uid": "7696275"}, {"id": "566051040", "uid": "7696275", "user": "Sweetnut", "version": 1, "tags": {"highway": "unclassified"}, "nodes": [{"lat": -2.7470192, "lon": 33.4309398, "id": "5450496690"}, {"lat": -2.7470969, "lon": 33.4312027, "id": "5450496691"}, {"lat": -2.747117, "lon": 33.4312671, "id": "5450496692"}, {"lat": -2.747172, "lon": 33.4313288, "id": "5450496693"}, {"lat": -2.7471653, "lon": 33.4313797, "id": "5450496694"}]}, {"id": "566052187", "uid": "7696275", "user": "Sweetnut", "version": 1, "tags": {"highway": "unclassified"}, "nodes": [{"lat": -2.747316, "lon": 33.4307467, "id": "5450504340"}, {"lat": -2.7473816, "lon": 33.4307856, "id": "5450504341"}, {"lat": -2.7474606, "lon": 33.4308607, "id": "5450504342"}, {"lat": -2.7475263, "lon": 33.430972, "id": "5450504343"}, {"lat": -2.7475182, "lon": 33.4310793, "id": "5450504344"}, {"lat": -2.7475093, "lon": 33.431142, "id": "5450504348"}, {"lat": -2.7475075, "lon": 33.4311544, "id": "5450504345"}, {"lat": -2.74747, "lon": 33.4312523, "id": "5450504346"}, {"lat": -2.7473896, "lon": 33.4313784, "id": "5450504347"}]}, {"id": "566052189", "uid": "7696275", "user": "Sweetnut", "version": 1, "tags": {"highway": "unclassified"}, "nodes": [{"lat": -2.7475093, "lon": 33.431142, "id": "5450504348"}, {"lat": -2.7474553, "lon": 33.4311544, "id": "5450504349"}, {"lat": -2.7474003, "lon": 33.4311933, "id": "5450504350"}, {"lat": -2.7473494, "lon": 33.431251, "id": "5450504351"}, {"lat": -2.7473066, "lon": 33.4313113, "id": "5450504352"}, {"lat": -2.7472811, "lon": 33.4313676, "id": "5450504353"}]}, {"id": "566052530", "uid": "7696127", "user": "Aaltis", "version": 1, "tags": {"highway": "unclassified"}, "nodes": [{"lat": -2.9409145, "lon": 33.4436155, "id": "5450508131"}, {"lat": -2.9404862, "lon": 33.4437886, "id": "5450508132"}, {"lat": -2.9402368, "lon": 33.4438511, "id": "5450508133"}, {"lat": -2.9399875, "lon": 33.4439519, "id": "5450508134"}, {"lat": -2.9399239, "lon": 33.4439686, "id": "5450508135"}, {"lat": -2.939903, "lon": 33.4440177, "id": "5450508136"}, {"lat": -2.9399066, "lon": 33.4441078, "id": "5450508137"}, {"lat": -2.9399303, "lon": 33.4441914, "id": "5450508138"}, {"lat": -2.9399384, "lon": 33.4442824, "id": "5450508139"}, {"lat": -2.939999, "lon": 33.4445915, "id": "5450508140"}, {"lat": -2.9400281, "lon": 33.4449559, "id": "5450508141"}, {"lat": -2.940034, "lon": 33.4450258, "id": "5450508142"}, {"lat": -2.9400805, "lon": 33.445192, "id": "5450508143"}, {"lat": -2.9401009, "lon": 33.445396, "id": "5450508144"}, {"lat": -2.9401155, "lon": 33.4454951, "id": "5450508145"}, {"lat": -2.94013, "lon": 33.445635, "id": "5450508146"}, {"lat": -2.9401475, "lon": 33.4457691, "id": "5450508147"}, {"lat": -2.9401475, "lon": 33.445909, "id": "5450508148"}, {"lat": -2.9401591, "lon": 33.4459819, "id": "5450508149"}, {"lat": -2.9401562, "lon": 33.4460635, "id": "5450508150"}, {"lat": -2.9401621, "lon": 33.4461218, "id": "5450508151"}, {"lat": -2.9402057, "lon": 33.4461859, "id": "5450508152"}, {"lat": -2.940296, "lon": 33.4462122, "id": "5450508153"}, {"lat": -2.9404211, "lon": 33.4461918, "id": "5450508154"}, {"lat": -2.9405638, "lon": 33.4461859, "id": "5450508155"}, {"lat": -2.9406889, "lon": 33.4461714, "id": "5450508156"}, {"lat": -2.9408112, "lon": 33.4461393, "id": "5450508157"}, {"lat": -2.9409247, "lon": 33.4461043, "id": "5450508158"}, {"lat": -2.941047, "lon": 33.4460635, "id": "5450508159"}, {"lat": -2.9412013, "lon": 33.4460256, "id": "5450508160"}]}, {"id": "566052671", "uid": "7696275", "user": "Sweetnut", "version": 1, "tags": {"highway": "unclassified"}, "nodes": [{"lat": -2.747575, "lon": 33.4310418, "id": "5450483917"}, {"lat": -2.7475182, "lon": 33.4310793, "id": "5450504344"}]}, {"id": "566053066", "uid": "7696275", "user": "Sweetnut", "version": 1, "tags": {"highway": "unclassified"}, "nodes": [{"lat": -2.747575, "lon": 33.4310418, "id": "5450483917"}, {"lat": -2.747612, "lon": 33.4310766, "id": "5450511463"}, {"lat": -2.7476468, "lon": 33.4311034, "id": "5450511464"}, {"lat": -2.7476575, "lon": 33.4311356, "id": "5450511465"}, {"lat": -2.7476924, "lon": 33.4311182, "id": "5450511466"}, {"lat": -2.7477218, "lon": 33.4311034, "id": "5450511467"}, {"lat": -2.7477607, "lon": 33.4311665, "id": "5450511468"}, {"lat": -2.7479335, "lon": 33.4312376, "id": "5450511469"}, {"lat": -2.7480474, "lon": 33.4312832, "id": "5450511470"}, {"lat": -2.7481251, "lon": 33.4312966, "id": "5450511471"}, {"lat": -2.7483487, "lon": 33.4313328, "id": "5450511472"}, {"lat": -2.7486609, "lon": 33.4313006, "id": "5450511473"}, {"lat": -2.7489609, "lon": 33.431192, "id": "5450511474"}, {"lat": -2.7491779, "lon": 33.4311356, "id": "5450511475"}]}, {"user": "papi123nwa", "version": 2, "id": "566053297", "tags": {"highway": "unclassified"}, "uid": "7696254"}, {"user": "papi123nwa", "version": 2, "id": "566053299", "tags": {"highway": "unclassified"}, "uid": "7696254"}, {"user": "papi123nwa", "version": 2, "id": "566053301", "tags": {"highway": "unclassified"}, "uid": "7696254"}, {"user": "papi123nwa", "version": 2, "id": "566053303", "tags": {"highway": "unclassified"}, "uid": "7696254"}, {"user": "papi123nwa", "version": 2, "id": "566053305", "tags": {"highway": "unclassified"}, "uid": "7696254"}, {"user": "papi123nwa", "version": 2, "id": "566053307", "tags": {"highway": "unclassified"}, "uid": "7696254"}, {"user": "papi123nwa", "version": 2, "id": "566053309", "tags": {"highway": "unclassified"}, "uid": "7696254"}, {"id": "566053429", "uid": "7696275", "user": "Sweetnut", "version": 1, "tags": {"highway": "unclassified"}, "nodes": [{"lat": -2.7461996, "lon": 33.429529, "id": "5450521386"}, {"lat": -2.7465157, "lon": 33.4296416, "id": "5450521387"}, {"lat": -2.7466282, "lon": 33.4298294, "id": "5450521388"}, {"lat": -2.7467783, "lon": 33.4299206, "id": "5450521389"}, {"lat": -2.7475552, "lon": 33.4301995, "id": "5450521390"}, {"lat": -2.7476249, "lon": 33.4302961, "id": "5450521391"}]}, {"id": "566053792", "uid": "4610557", "user": "Salla Multim\u00e4ki", "version": 1, "tags": {"highway": "unclassified"}, "nodes": [{"lat": -2.9096797, "lon": 33.4990379, "id": "5450525548"}, {"lat": -2.9093256, "lon": 33.4987212, "id": "5450525549"}, {"lat": -2.9090436, "lon": 33.4985767, "id": "5450525550"}, {"lat": -2.9086001, "lon": 33.4985491, "id": "5450525551"}, {"lat": -2.9080913, "lon": 33.4985732, "id": "5450525552"}, {"lat": -2.9076439, "lon": 33.4986939, "id": "5450525553"}]}, {"id": "566053824", "uid": "4610557", "user": "Salla Multim\u00e4ki", "version": 1, "tags": {"highway": "unclassified"}, "nodes": [{"lat": -2.9066277, "lon": 33.5003812, "id": "5450525738"}, {"lat": -2.9063075, "lon": 33.5006668, "id": "5450525739"}, {"lat": -2.9063191, "lon": 33.5010137, "id": "5450525740"}, {"lat": -2.9054836, "lon": 33.5012411, "id": "5450525741"}]}, {"id": "566053826", "uid": "4610557", "user": "Salla Multim\u00e4ki", "version": 1, "tags": {"highway": "unclassified"}, "nodes": [{"lat": -2.9046714, "lon": 33.5013868, "id": "5450525742"}, {"lat": -2.9054836, "lon": 33.5012411, "id": "5450525741"}]}, {"id": "566055329", "uid": "7696146", "user": "Ereine", "version": 1, "tags": {"highway": "unclassified"}, "nodes": [{"lat": -2.8884876, "lon": 33.4441635, "id": "5450534082"}, {"lat": -2.888884, "lon": 33.4449574, "id": "5450534083"}, {"lat": -2.8894427, "lon": 33.4456791, "id": "5450534084"}, {"lat": -2.8897671, "lon": 33.4460761, "id": "5450534085"}, {"lat": -2.8902536, "lon": 33.4464009, "id": "5450534086"}, {"lat": -2.8908663, "lon": 33.4467257, "id": "5450534087"}, {"lat": -2.8913889, "lon": 33.4471226, "id": "5450534088"}, {"lat": -2.8918575, "lon": 33.4475557, "id": "5450534089"}, {"lat": -2.8921458, "lon": 33.4479166, "id": "5450534090"}, {"lat": -2.8925783, "lon": 33.4485661, "id": "5450534091"}, {"lat": -2.8930288, "lon": 33.4492879, "id": "5450534092"}, {"lat": -2.8933532, "lon": 33.4498292, "id": "5450534093"}, {"lat": -2.8936055, "lon": 33.4502622, "id": "5450534094"}, {"lat": -2.894092, "lon": 33.4507675, "id": "5450534095"}, {"lat": -2.8943326, "lon": 33.4510558, "id": "5450534096"}, {"lat": -2.8945365, "lon": 33.4512408, "id": "5450534097"}, {"lat": -2.8947403, "lon": 33.4514833, "id": "5450534098"}, {"lat": -2.8948295, "lon": 33.4516746, "id": "5450534099"}, {"lat": -2.8949378, "lon": 33.4518341, "id": "5450534100"}, {"lat": -2.8950908, "lon": 33.4520255, "id": "5450534101"}, {"lat": -2.8951226, "lon": 33.4522679, "id": "5450534102"}, {"lat": -2.8952182, "lon": 33.4524721, "id": "5450534103"}, {"lat": -2.895301, "lon": 33.4527081, "id": "5450534104"}, {"lat": -2.895352, "lon": 33.4529059, "id": "5450534105"}, {"lat": -2.8953583, "lon": 33.4531483, "id": "5450534106"}, {"lat": -2.8954475, "lon": 33.4535693, "id": "5450534107"}, {"lat": -2.8955622, "lon": 33.4538436, "id": "5450534108"}, {"lat": -2.8956833, "lon": 33.4541562, "id": "5450534109"}, {"lat": -2.8958553, "lon": 33.4544943, "id": "5450534110"}, {"lat": -2.8959063, "lon": 33.4546921, "id": "5450534111"}, {"lat": -2.89597, "lon": 33.4549536, "id": "5450534112"}, {"lat": -2.8959891, "lon": 33.455094, "id": "5450534113"}, {"lat": -2.8959572, "lon": 33.455464, "id": "5450534114"}, {"lat": -2.8959381, "lon": 33.4556809, "id": "5450534115"}, {"lat": -2.8959381, "lon": 33.4559169, "id": "5450534116"}, {"lat": -2.8959636, "lon": 33.4561083, "id": "5450534117"}, {"lat": -2.896091, "lon": 33.4563444, "id": "5450534118"}, {"lat": -2.8961866, "lon": 33.4565102, "id": "5450534119"}, {"lat": -2.8962567, "lon": 33.456759, "id": "5450534120"}, {"lat": -2.8962631, "lon": 33.4571163, "id": "5450534321"}, {"lat": -2.8962567, "lon": 33.4573714, "id": "5450534322"}, {"lat": -2.8962886, "lon": 33.457633, "id": "5450534323"}, {"lat": -2.8962694, "lon": 33.4577861, "id": "5450534324"}, {"lat": -2.896314, "lon": 33.4582773, "id": "5450534325"}, {"lat": -2.8963204, "lon": 33.4585261, "id": "5450534326"}, {"lat": -2.8963204, "lon": 33.4588578, "id": "5450534327"}, {"lat": -2.8963395, "lon": 33.4591322, "id": "5450534328"}, {"lat": -2.8963905, "lon": 33.459483, "id": "5450534329"}, {"lat": -2.8964733, "lon": 33.4598785, "id": "5450534330"}, {"lat": -2.8965753, "lon": 33.4602294, "id": "5450534331"}, {"lat": -2.8968365, "lon": 33.4606824, "id": "5450534332"}, {"lat": -2.896932, "lon": 33.4609694, "id": "5450534333"}, {"lat": -2.8970531, "lon": 33.4613394, "id": "5450534334"}, {"lat": -2.897257, "lon": 33.4616839, "id": "5450534335"}, {"lat": -2.8973334, "lon": 33.4619582, "id": "5450534336"}, {"lat": -2.89748, "lon": 33.4623091, "id": "5450534337"}, {"lat": -2.8976966, "lon": 33.4627812, "id": "5450534338"}, {"lat": -2.8978368, "lon": 33.4630619, "id": "5450534339"}, {"lat": -2.897996, "lon": 33.4632852, "id": "5450534340"}, {"lat": -2.8981936, "lon": 33.4635403, "id": "5450534341"}, {"lat": -2.8984293, "lon": 33.463821, "id": "5450534342"}, {"lat": -2.898419, "lon": 33.4639572, "id": "5450534343"}, {"lat": -2.8983659, "lon": 33.4640559, "id": "5450534344"}, {"lat": -2.8982447, "lon": 33.4641848, "id": "5450534345"}, {"lat": -2.8981121, "lon": 33.4642, "id": "5450534346"}, {"lat": -2.8979113, "lon": 33.4642417, "id": "5450534347"}, {"lat": -2.8977446, "lon": 33.4642417, "id": "5450534348"}]}, {"id": "566055586", "uid": "7696127", "user": "Aaltis", "version": 1, "tags": {"highway": "unclassified"}, "nodes": [{"lat": -2.9337859, "lon": 33.4422305, "id": "5450537847"}, {"lat": -2.9338757, "lon": 33.4423264, "id": "5450537848"}, {"lat": -2.9339475, "lon": 33.4424268, "id": "5450537849"}, {"lat": -2.9340672, "lon": 33.4425332, "id": "5450537850"}, {"lat": -2.9341855, "lon": 33.4426261, "id": "5450537851"}, {"lat": -2.934365, "lon": 33.442737, "id": "5450537852"}, {"lat": -2.9344294, "lon": 33.4427805, "id": "5450537853"}, {"lat": -2.9344952, "lon": 33.4428074, "id": "5450537854"}, {"lat": -2.9345386, "lon": 33.4428269, "id": "5450537855"}, {"lat": -2.9346329, "lon": 33.4428449, "id": "5450537856"}, {"lat": -2.9346778, "lon": 33.4428269, "id": "5450537857"}, {"lat": -2.9347541, "lon": 33.4427954, "id": "5450537858"}, {"lat": -2.9347915, "lon": 33.4427715, "id": "5450537859"}, {"lat": -2.9348589, "lon": 33.442767, "id": "5450537860"}, {"lat": -2.9349591, "lon": 33.4427864, "id": "5450537861"}, {"lat": -2.9351537, "lon": 33.4428059, "id": "5450537862"}, {"lat": -2.9353033, "lon": 33.4428224, "id": "5450537863"}, {"lat": -2.9355158, "lon": 33.4428464, "id": "5450537864"}, {"lat": -2.9356389, "lon": 33.4428674, "id": "5450537865"}, {"lat": -2.9358036, "lon": 33.4428775, "id": "5450537866"}, {"lat": -2.93592, "lon": 33.4428929, "id": "5450537867"}, {"lat": -2.9361237, "lon": 33.4428725, "id": "5450537868"}, {"lat": -2.9364003, "lon": 33.4427821, "id": "5450537869"}, {"lat": -2.9365455, "lon": 33.4427422, "id": "5450537870"}, {"lat": -2.9366909, "lon": 33.4427126, "id": "5450537871"}, {"lat": -2.936893, "lon": 33.4426805, "id": "5450537872"}, {"lat": -2.937241, "lon": 33.4426818, "id": "5450537873"}, {"lat": -2.937694, "lon": 33.4426591, "id": "5450537874"}, {"lat": -2.9378752, "lon": 33.4426024, "id": "5450537875"}, {"lat": -2.9380225, "lon": 33.4422735, "id": "5450537876"}, {"lat": -2.9382263, "lon": 33.442007, "id": "5450537877"}, {"lat": -2.9383113, "lon": 33.4418539, "id": "5450537878"}, {"lat": -2.9384472, "lon": 33.4416725, "id": "5450537879"}, {"lat": -2.938736, "lon": 33.4415307, "id": "5450537880"}, {"lat": -2.9390361, "lon": 33.441406, "id": "5450537881"}, {"lat": -2.9392117, "lon": 33.4412699, "id": "5450537882"}, {"lat": -2.9393023, "lon": 33.441372, "id": "5450537883"}]}, {"id": "566056558", "uid": "3686638", "user": "MarkoKallio", "version": 1, "tags": {"highway": "unclassified"}, "nodes": [{"lat": -2.847782, "lon": 33.4754464, "id": "5450555958"}, {"lat": -2.8479106, "lon": 33.4756824, "id": "5450555957"}, {"lat": -2.8480378, "lon": 33.4758635, "id": "5450555956"}, {"lat": -2.848141, "lon": 33.4760553, "id": "5450555955"}, {"lat": -2.8484153, "lon": 33.4763198, "id": "5450555951"}, {"lat": -2.8484678, "lon": 33.4763704, "id": "5450555954"}, {"lat": -2.8487357, "lon": 33.4766373, "id": "5450555953"}, {"lat": -2.8489504, "lon": 33.47687, "id": "5450555952"}]}, {"id": "566058907", "uid": "7696254", "user": "papi123nwa", "version": 1, "tags": {"highway": "unclassified"}, "nodes": [{"lat": -2.9897089, "lon": 33.4675894, "id": "5450519530"}, {"lat": -2.9893596, "lon": 33.4678248, "id": "5450611476"}, {"lat": -2.9889555, "lon": 33.4680165, "id": "5450611477"}, {"lat": -2.9882607, "lon": 33.4684424, "id": "5450611478"}, {"lat": -2.9879275, "lon": 33.4685702, "id": "5450611479"}, {"lat": -2.9873725, "lon": 33.4688024, "id": "5450611480"}, {"lat": -2.9870747, "lon": 33.469058, "id": "5450611481"}]}, {"id": "566058953", "uid": "5811250", "user": "ElinaN", "version": 1, "tags": {"highway": "unclassified"}, "nodes": [{"lat": -2.9383141, "lon": 33.4636008, "id": "5450612002"}, {"lat": -2.9378848, "lon": 33.4637487, "id": "5450612003"}, {"lat": -2.9374614, "lon": 33.463893, "id": "5450612004"}, {"lat": -2.937173, "lon": 33.4639922, "id": "5450612005"}, {"lat": -2.9364883, "lon": 33.4643441, "id": "5450612006"}, {"lat": -2.9360738, "lon": 33.4644343, "id": "5450612007"}, {"lat": -2.9360054, "lon": 33.4645292, "id": "5450612008"}, {"lat": -2.9357804, "lon": 33.4640893, "id": "5450612009"}, {"lat": -2.9356518, "lon": 33.464041, "id": "5450612010"}, {"lat": -2.9355232, "lon": 33.4638908, "id": "5450612011"}, {"lat": -2.9354, "lon": 33.4637031, "id": "5450612012"}, {"lat": -2.9352232, "lon": 33.463526, "id": "5450612013"}, {"lat": -2.9347946, "lon": 33.4632846, "id": "5450612014"}, {"lat": -2.9345214, "lon": 33.4632363, "id": "5450612015"}, {"lat": -2.9334017, "lon": 33.4629467, "id": "5450612016"}, {"lat": -2.9332678, "lon": 33.4627535, "id": "5450612017"}, {"lat": -2.9332249, "lon": 33.4625229, "id": "5450612018"}, {"lat": -2.933016, "lon": 33.4624102, "id": "5450612019"}, {"lat": -2.9328392, "lon": 33.4621205, "id": "5450612020"}, {"lat": -2.9326838, "lon": 33.4619757, "id": "5450615421"}, {"lat": -2.932582, "lon": 33.4617504, "id": "5450615422"}, {"lat": -2.9318747, "lon": 33.4619246, "id": "5450615423"}]}, {"id": "566058954", "uid": "5811250", "user": "ElinaN", "version": 1, "tags": {"highway": "unclassified"}, "nodes": [{"lat": -2.9355232, "lon": 33.4638908, "id": "5450612011"}, {"lat": -2.9349114, "lon": 33.4644205, "id": "5450615424"}]}, {"id": "566058956", "uid": "4723427", "user": "Luoteiskaira", "version": 1, "tags": {"highway": "unclassified"}, "nodes": [{"lat": -3.0011784, "lon": 33.5540919, "id": "5450615639"}, {"lat": -3.0011379, "lon": 33.5532308, "id": "5450615640"}, {"lat": -3.001008, "lon": 33.5525965, "id": "5450615641"}, {"lat": -3.0008456, "lon": 33.5522144, "id": "5450615642"}, {"lat": -3.0005046, "lon": 33.5519786, "id": "5450615643"}, {"lat": -3.0003666, "lon": 33.5518078, "id": "5450615644"}, {"lat": -3.0004478, "lon": 33.5514907, "id": "5450615645"}, {"lat": -3.0005858, "lon": 33.551198, "id": "5450615646"}, {"lat": -3.0005046, "lon": 33.5507264, "id": "5450615647"}, {"lat": -3.0004721, "lon": 33.5504175, "id": "5450615648"}, {"lat": -3.0004721, "lon": 33.5502142, "id": "5450615649"}, {"lat": -3.000529, "lon": 33.5500109, "id": "5450615650"}, {"lat": -3.0004802, "lon": 33.5496857, "id": "5450615651"}, {"lat": -3.0002204, "lon": 33.5493523, "id": "5450615652"}, {"lat": -2.999935, "lon": 33.5490975, "id": "5450615653"}, {"lat": -2.9997239, "lon": 33.5488698, "id": "5450615654"}, {"lat": -2.9996346, "lon": 33.5485527, "id": "5450615655"}, {"lat": -2.9995859, "lon": 33.5481543, "id": "5450615656"}, {"lat": -2.9995859, "lon": 33.5477315, "id": "5450615657"}, {"lat": -2.9996752, "lon": 33.5467721, "id": "5450615658"}, {"lat": -2.9996752, "lon": 33.5465688, "id": "5450615659"}, {"lat": -2.9995371, "lon": 33.5464875, "id": "5450615660"}, {"lat": -2.9992936, "lon": 33.5465037, "id": "5450615661"}, {"lat": -2.9991555, "lon": 33.5465932, "id": "5450615662"}, {"lat": -2.9990581, "lon": 33.5467151, "id": "5450615663"}, {"lat": -2.9985871, "lon": 33.5467883, "id": "5450615664"}, {"lat": -2.9982461, "lon": 33.5467965, "id": "5450615665"}, {"lat": -2.9979781, "lon": 33.5466664, "id": "5450615666"}, {"lat": -2.9974991, "lon": 33.5460222, "id": "5450615667"}, {"lat": -2.9971499, "lon": 33.5456889, "id": "5450615668"}, {"lat": -2.99702, "lon": 33.5453962, "id": "5450615669"}, {"lat": -2.9964922, "lon": 33.544892, "id": "5450615670"}, {"lat": -2.9962161, "lon": 33.5446888, "id": "5450615671"}, {"lat": -2.9960943, "lon": 33.5443554, "id": "5450615672"}, {"lat": -2.9959563, "lon": 33.5440464, "id": "5450615673"}, {"lat": -2.9957127, "lon": 33.5437944, "id": "5450615674"}, {"lat": -2.995715, "lon": 33.5435609, "id": "5450615638"}]}, {"id": "566059073", "uid": "7696131", "user": "FINtia", "version": 1, "tags": {"highway": "unclassified"}, "nodes": [{"lat": -2.9216279, "lon": 33.444784, "id": "5450620012"}, {"lat": -2.9220279, "lon": 33.4448086, "id": "5450620013"}, {"lat": -2.922231, "lon": 33.4448518, "id": "5450620014"}, {"lat": -2.9224957, "lon": 33.4449442, "id": "5450620015"}, {"lat": -2.9227898, "lon": 33.4449853, "id": "5450620016"}, {"lat": -2.9229524, "lon": 33.4450207, "id": "5450620017"}, {"lat": -2.9236028, "lon": 33.4449075, "id": "5450620018"}, {"lat": -2.9238416, "lon": 33.4448528, "id": "5450620019"}, {"lat": -2.9242281, "lon": 33.4445697, "id": "5450620020"}, {"lat": -2.924423, "lon": 33.4444559, "id": "5450621321"}, {"lat": -2.9248412, "lon": 33.4442079, "id": "5450621322"}, {"lat": -2.9253122, "lon": 33.4438013, "id": "5450621323"}, {"lat": -2.9259322, "lon": 33.4434166, "id": "5450621324"}, {"lat": -2.9263876, "lon": 33.4430518, "id": "5450621325"}, {"lat": -2.9266126, "lon": 33.4424027, "id": "5450621326"}]}, {"id": "566071005", "uid": "7696216", "user": "Anna_H", "version": 1, "tags": {"highway": "unclassified"}, "nodes": [{"lat": -2.9155445, "lon": 33.5536393, "id": "5418270335"}, {"lat": -2.9156439, "lon": 33.5534604, "id": "5450662315"}, {"lat": -2.9158314, "lon": 33.5533155, "id": "5450662316"}, {"lat": -2.9161636, "lon": 33.5529829, "id": "5450662317"}, {"lat": -2.9163618, "lon": 33.5528488, "id": "5450662318"}, {"lat": -2.916469, "lon": 33.5527523, "id": "5450662319"}, {"lat": -2.9165279, "lon": 33.552704, "id": "5450662320"}, {"lat": -2.9168868, "lon": 33.5523767, "id": "5450662321"}, {"lat": -2.917144, "lon": 33.552248, "id": "5450662322"}]}, {"id": "566071014", "uid": "7696216", "user": "Anna_H", "version": 1, "tags": {"highway": "unclassified"}, "nodes": [{"lat": -2.9145164, "lon": 33.5614738, "id": "5450662342"}, {"lat": -2.9142891, "lon": 33.5614825, "id": "5450662373"}, {"lat": -2.9137168, "lon": 33.5615934, "id": "5450662374"}, {"lat": -2.9135783, "lon": 33.5615842, "id": "5450662375"}, {"lat": -2.9129844, "lon": 33.5614594, "id": "5450662377"}, {"lat": -2.9123782, "lon": 33.5613654, "id": "5450662376"}]}, {"user": "Sweetnut", "version": 2, "id": "566077995", "tags": {"highway": "unclassified"}, "uid": "7696275"}, {"user": "Sweetnut", "version": 2, "id": "566077997", "tags": {"highway": "unclassified"}, "uid": "7696275"}, {"id": "566077998", "uid": "7696275", "user": "Sweetnut", "version": 1, "tags": {"highway": "unclassified"}, "nodes": [{"lat": -2.7530927, "lon": 33.4211699, "id": "5450701526"}, {"lat": -2.7530664, "lon": 33.420899, "id": "5450701524"}]}, {"id": "566078936", "uid": "7696275", "user": "Sweetnut", "version": 1, "tags": {"highway": "unclassified"}, "nodes": [{"lat": -2.752881, "lon": 33.4216044, "id": "5450703264"}, {"lat": -2.7530552, "lon": 33.4215695, "id": "5450703265"}, {"lat": -2.7531168, "lon": 33.421473, "id": "5450703266"}, {"lat": -2.7531623, "lon": 33.4212745, "id": "5450703267"}, {"lat": -2.7533927, "lon": 33.4212369, "id": "5450703268"}, {"lat": -2.7534945, "lon": 33.4212584, "id": "5450703269"}, {"lat": -2.7536124, "lon": 33.4212316, "id": "5450703270"}, {"lat": -2.753674, "lon": 33.4212664, "id": "5450703271"}, {"lat": -2.7539071, "lon": 33.4212933, "id": "5450703272"}]}, {"id": "566079237", "uid": "7696275", "user": "Sweetnut", "version": 1, "tags": {"highway": "unclassified"}, "nodes": [{"lat": -2.7529453, "lon": 33.4214354, "id": "5450704289"}, {"lat": -2.7531168, "lon": 33.421473, "id": "5450703266"}]}, {"user": "Sweetnut", "version": 3, "id": "566079768", "tags": {"highway": "unclassified"}, "uid": "7696275"}, {"id": "566079881", "uid": "7696275", "user": "Sweetnut", "version": 1, "tags": {"highway": "unclassified"}, "nodes": [{"lat": -2.7550405, "lon": 33.4211347, "id": "5450708432"}, {"lat": -2.7552164, "lon": 33.420439, "id": "5450708433"}]}, {"id": "566081221", "uid": "7696275", "user": "Sweetnut", "version": 1, "tags": {"highway": "unclassified"}, "nodes": [{"lat": -2.7455495, "lon": 33.4275851, "id": "5450718654"}, {"lat": -2.7456754, "lon": 33.4275368, "id": "5450718655"}, {"lat": -2.7458335, "lon": 33.4273866, "id": "5450718656"}, {"lat": -2.7459755, "lon": 33.4273196, "id": "5450718657"}, {"lat": -2.7460746, "lon": 33.4272257, "id": "5450718658"}, {"lat": -2.7461764, "lon": 33.4271077, "id": "5450718659"}, {"lat": -2.7462327, "lon": 33.4270057, "id": "5450718660"}, {"lat": -2.7463533, "lon": 33.4268904, "id": "5450718661"}, {"lat": -2.7464658, "lon": 33.4268153, "id": "5450718662"}, {"lat": -2.7465917, "lon": 33.4267375, "id": "5450718663"}, {"lat": -2.746656, "lon": 33.4266517, "id": "5450718664"}]}, {"id": "566085243", "uid": "7659922", "user": "ZHANGPALEX", "version": 1, "tags": {"highway": "unclassified"}, "nodes": [{"lat": -2.9351306, "lon": 33.91779, "id": "5450747919"}, {"lat": -2.935423, "lon": 33.9185299, "id": "5450747920"}, {"lat": -2.9356909, "lon": 33.9195462, "id": "5450749321"}, {"lat": -2.9358371, "lon": 33.9198633, "id": "5450749322"}]}, {"id": "566085325", "uid": "3401745", "user": "VuokkoH", "version": 1, "tags": {"highway": "unclassified"}, "nodes": [{"lat": -2.9119725, "lon": 33.5721229, "id": "5450749411"}, {"lat": -2.9121945, "lon": 33.5720889, "id": "5450749418"}, {"lat": -2.9126742, "lon": 33.5720234, "id": "5450749419"}, {"lat": -2.913481, "lon": 33.5719106, "id": "5450749420"}, {"lat": -2.9137753, "lon": 33.5718633, "id": "5450750921"}]}, {"id": "566090360", "uid": "7659922", "user": "ZHANGPALEX", "version": 1, "tags": {"highway": "unclassified"}, "nodes": [{"lat": -2.9330575, "lon": 33.908092, "id": "4788959039"}, {"lat": -2.9343995, "lon": 33.9075222, "id": "5450779460"}, {"lat": -2.9346701, "lon": 33.9075316, "id": "5450779461"}, {"lat": -2.9349126, "lon": 33.9078211, "id": "5450779462"}, {"lat": -2.9352017, "lon": 33.9082741, "id": "5450779463"}, {"lat": -2.935393, "lon": 33.9087084, "id": "5450779464"}, {"lat": -2.9354816, "lon": 33.9088579, "id": "5450779465"}, {"lat": -2.9357567, "lon": 33.9089326, "id": "5450779466"}, {"lat": -2.9363164, "lon": 33.9089232, "id": "5450779467"}, {"lat": -2.9364656, "lon": 33.9089699, "id": "5450779468"}, {"lat": -2.9371839, "lon": 33.9089839, "id": "5450779469"}, {"lat": -2.9378228, "lon": 33.9090213, "id": "5450779470"}, {"lat": -2.9379301, "lon": 33.9092641, "id": "5450779471"}, {"lat": -2.9382472, "lon": 33.9091894, "id": "5450779472"}, {"lat": -2.9383732, "lon": 33.9092221, "id": "5450779473"}, {"lat": -2.9388187, "lon": 33.9091593, "id": "5450779485"}, {"lat": -2.939407, "lon": 33.9090595, "id": "5450779475"}, {"lat": -2.9399827, "lon": 33.9087754, "id": "5450779474"}]}, {"id": "566094710", "uid": "7696216", "user": "Anna_H", "version": 1, "tags": {"highway": "unclassified"}, "nodes": [{"lat": -2.9047976, "lon": 33.5548836, "id": "5450800588"}, {"lat": -2.904559, "lon": 33.5547307, "id": "5450800589"}, {"lat": -2.9040675, "lon": 33.5545826, "id": "5450800590"}, {"lat": -2.9037525, "lon": 33.5545921, "id": "5450800591"}, {"lat": -2.9033707, "lon": 33.5544392, "id": "5450800592"}, {"lat": -2.9030319, "lon": 33.5541668, "id": "5450800593"}]}, {"id": "566094711", "uid": "7696216", "user": "Anna_H", "version": 1, "tags": {"highway": "unclassified"}, "nodes": [{"lat": -2.9030319, "lon": 33.5541668, "id": "5450800593"}, {"lat": -2.9026406, "lon": 33.5539232, "id": "5450800594"}, {"lat": -2.9019152, "lon": 33.5535504, "id": "5450800595"}, {"lat": -2.9014714, "lon": 33.5532733, "id": "5450800596"}, {"lat": -2.9011183, "lon": 33.553173, "id": "5450800597"}, {"lat": -2.9008987, "lon": 33.5529818, "id": "5450800598"}, {"lat": -2.9007508, "lon": 33.5527429, "id": "5450800599"}]}, {"id": "566094712", "uid": "7696216", "user": "Anna_H", "version": 1, "tags": {"highway": "unclassified"}, "nodes": [{"lat": -2.9007508, "lon": 33.5527429, "id": "5450800599"}, {"lat": -2.9006684, "lon": 33.5523372, "id": "5450800600"}, {"lat": -2.9001223, "lon": 33.5523445, "id": "5450800601"}, {"lat": -2.8994857, "lon": 33.5523698, "id": "5450800602"}]}, {"id": "566094713", "uid": "7696216", "user": "Anna_H", "version": 1, "tags": {"highway": "unclassified"}, "nodes": [{"lat": -2.8994857, "lon": 33.5523698, "id": "5450800602"}, {"lat": -2.8993085, "lon": 33.5524024, "id": "5450800603"}]}, {"id": "566094714", "uid": "7696216", "user": "Anna_H", "version": 1, "tags": {"highway": "unclassified"}, "nodes": [{"lat": -2.8993085, "lon": 33.5524024, "id": "5450800603"}, {"lat": -2.8992832, "lon": 33.5526016, "id": "5450800604"}, {"lat": -2.8992434, "lon": 33.5527609, "id": "5450800605"}, {"lat": -2.8992724, "lon": 33.5529709, "id": "5450800606"}, {"lat": -2.8992217, "lon": 33.5531737, "id": "5450800607"}, {"lat": -2.899153, "lon": 33.5532534, "id": "5450800608"}]}, {"id": "566094715", "uid": "7696216", "user": "Anna_H", "version": 1, "tags": {"highway": "unclassified"}, "nodes": [{"lat": -2.8992434, "lon": 33.5527609, "id": "5450800605"}, {"lat": -2.8991458, "lon": 33.5526776, "id": "5450800609"}]}, {"id": "566094717", "uid": "7696216", "user": "Anna_H", "version": 1, "tags": {"highway": "unclassified"}, "nodes": [{"lat": -2.8984118, "lon": 33.5602373, "id": "5450800610"}]}, {"id": "566094802", "uid": "7696216", "user": "Anna_H", "version": 1, "tags": {"highway": "unclassified"}, "nodes": [{"lat": -2.9042294, "lon": 33.5577112, "id": "5450800894"}]}, {"id": "566095175", "uid": "7659922", "user": "ZHANGPALEX", "version": 1, "tags": {"highway": "unclassified"}, "nodes": [{"lat": -3.0425767, "lon": 33.9226208, "id": "5450804995"}, {"lat": -3.0423039, "lon": 33.922908, "id": "5450804996"}, {"lat": -3.042129, "lon": 33.9230551, "id": "5450804997"}, {"lat": -3.0420055, "lon": 33.9231204, "id": "5450804998"}, {"lat": -3.0417047, "lon": 33.9232092, "id": "5450804999"}, {"lat": -3.0415111, "lon": 33.9232605, "id": "5450805000"}]}, {"id": "566095176", "uid": "7659922", "user": "ZHANGPALEX", "version": 1, "tags": {"highway": "unclassified"}, "nodes": [{"lat": -3.0446805, "lon": 33.9246617, "id": "5450805001"}]}, {"id": "566095178", "uid": "7659922", "user": "ZHANGPALEX", "version": 1, "tags": {"highway": "unclassified"}, "nodes": [{"lat": -3.0433982, "lon": 33.9260208, "id": "5450805007"}, {"lat": -3.0433936, "lon": 33.926259, "id": "5450805008"}, {"lat": -3.0434531, "lon": 33.926452, "id": "5450805006"}, {"lat": -3.043734, "lon": 33.92667, "id": "5450805009"}, {"lat": -3.0441584, "lon": 33.9268801, "id": "5450805010"}, {"lat": -3.0444009, "lon": 33.9269689, "id": "5450805011"}]}, {"id": "566100059", "uid": "7696275", "user": "Sweetnut", "version": 1, "tags": {"highway": "unclassified"}, "nodes": [{"lat": -2.7471179, "lon": 33.4250424, "id": "5450864180"}, {"lat": -2.7471179, "lon": 33.4251134, "id": "5450864181"}, {"lat": -2.7471219, "lon": 33.4251885, "id": "5450864182"}, {"lat": -2.747134, "lon": 33.4252328, "id": "5450864183"}, {"lat": -2.747134, "lon": 33.4252636, "id": "5450864184"}, {"lat": -2.7471192, "lon": 33.4252878, "id": "5450864185"}, {"lat": -2.7470509, "lon": 33.4252502, "id": "5450864186"}, {"lat": -2.7469009, "lon": 33.4251644, "id": "5450864187"}, {"lat": -2.7467873, "lon": 33.4250893, "id": "5450864188"}, {"lat": -2.7467283, "lon": 33.4250625, "id": "5450864189"}, {"lat": -2.7466614, "lon": 33.4250518, "id": "5450864190"}, {"lat": -2.7466185, "lon": 33.4250088, "id": "5450864191"}, {"lat": -2.7465783, "lon": 33.4249471, "id": "5450864192"}, {"lat": -2.7465167, "lon": 33.4248881, "id": "5450864193"}, {"lat": -2.7464417, "lon": 33.4248238, "id": "5450864194"}, {"lat": -2.7462434, "lon": 33.4246548, "id": "5450864195"}, {"lat": -2.7460961, "lon": 33.4245046, "id": "5450864196"}, {"lat": -2.7459809, "lon": 33.4243678, "id": "5450864197"}, {"lat": -2.7458791, "lon": 33.4242069, "id": "5450864198"}, {"lat": -2.7457692, "lon": 33.4240245, "id": "5450864199"}, {"lat": -2.745662, "lon": 33.4238072, "id": "5450864200"}, {"lat": -2.7455736, "lon": 33.4236758, "id": "5450864201"}, {"lat": -2.7455495, "lon": 33.4236382, "id": "5450864202"}]}, {"id": "566100190", "uid": "7696275", "user": "Sweetnut", "version": 1, "tags": {"highway": "unclassified"}, "nodes": [{"lat": -2.7455415, "lon": 33.423885, "id": "5450864375"}, {"lat": -2.745654, "lon": 33.4239547, "id": "5450864376"}, {"lat": -2.7457156, "lon": 33.4240111, "id": "5450864377"}, {"lat": -2.745788, "lon": 33.424113, "id": "5450864378"}, {"lat": -2.7458469, "lon": 33.4242417, "id": "5450864379"}, {"lat": -2.745871, "lon": 33.4243946, "id": "5450864380"}, {"lat": -2.7459032, "lon": 33.4244858, "id": "5450864381"}, {"lat": -2.7459273, "lon": 33.4246387, "id": "5450864382"}, {"lat": -2.7459969, "lon": 33.4247031, "id": "5450864383"}, {"lat": -2.7460291, "lon": 33.4248559, "id": "5450864384"}, {"lat": -2.746088, "lon": 33.4250115, "id": "5450864385"}, {"lat": -2.7460987, "lon": 33.4250732, "id": "5450864386"}, {"lat": -2.7461121, "lon": 33.4251134, "id": "5450864387"}]}, {"id": "566100380", "uid": "7696275", "user": "Sweetnut", "version": 1, "tags": {"highway": "unclassified"}, "nodes": [{"lat": -2.7477745, "lon": 33.4204719, "id": "5450868004"}, {"lat": -2.747662, "lon": 33.4205067, "id": "5450868005"}, {"lat": -2.7475602, "lon": 33.4205255, "id": "5450868006"}, {"lat": -2.7474396, "lon": 33.4205416, "id": "5450868007"}, {"lat": -2.7473459, "lon": 33.4205711, "id": "5450868008"}, {"lat": -2.7472869, "lon": 33.4206033, "id": "5450868009"}, {"lat": -2.7472226, "lon": 33.4206435, "id": "5450868010"}]}, {"id": "566100763", "uid": "7696275", "user": "Sweetnut", "version": 1, "tags": {"highway": "unclassified"}, "nodes": [{"lat": -2.7490525, "lon": 33.4231997, "id": "5450871652"}, {"lat": -2.749023, "lon": 33.4231219, "id": "5450871653"}, {"lat": -2.7489587, "lon": 33.4229824, "id": "5450871654"}, {"lat": -2.74894, "lon": 33.4228885, "id": "5450871655"}, {"lat": -2.74894, "lon": 33.4227678, "id": "5450871656"}, {"lat": -2.7490284, "lon": 33.4227035, "id": "5450871657"}, {"lat": -2.7491789, "lon": 33.4226847, "id": "5450871658"}, {"lat": -2.7493906, "lon": 33.4226418, "id": "5450871659"}, {"lat": -2.7495138, "lon": 33.422615, "id": "5450871660"}, {"lat": -2.7496612, "lon": 33.4226123, "id": "5450871661"}, {"lat": -2.7498058, "lon": 33.4225613, "id": "5450871662"}, {"lat": -2.749988, "lon": 33.4225077, "id": "5450871663"}, {"lat": -2.7501568, "lon": 33.422446, "id": "5450871664"}, {"lat": -2.7502372, "lon": 33.4224192, "id": "5450871665"}, {"lat": -2.7502774, "lon": 33.4223655, "id": "5450871666"}, {"lat": -2.7503792, "lon": 33.4223092, "id": "5450871667"}, {"lat": -2.7504837, "lon": 33.4222475, "id": "5450871668"}, {"lat": -2.7505989, "lon": 33.4221804, "id": "5450871669"}, {"lat": -2.7507248, "lon": 33.4221161, "id": "5450871670"}, {"lat": -2.7508887, "lon": 33.4220222, "id": "5450871671"}, {"lat": -2.7514299, "lon": 33.4217111, "id": "5450871672"}]}, {"id": "566100956", "uid": "7696275", "user": "Sweetnut", "version": 1, "tags": {"highway": "unclassified"}, "nodes": [{"lat": -2.7524989, "lon": 33.4222368, "id": "5450873382"}, {"lat": -2.7524373, "lon": 33.4222663, "id": "5450873383"}, {"lat": -2.7523971, "lon": 33.422218, "id": "5450873384"}, {"lat": -2.7523891, "lon": 33.4221509, "id": "5450873385"}, {"lat": -2.7522926, "lon": 33.4221268, "id": "5450873386"}, {"lat": -2.752164, "lon": 33.4221375, "id": "5450873387"}, {"lat": -2.7520408, "lon": 33.4221644, "id": "5450873388"}, {"lat": -2.7519845, "lon": 33.422159, "id": "5450873389"}, {"lat": -2.7518559, "lon": 33.4221214, "id": "5450873390"}, {"lat": -2.7517782, "lon": 33.4220785, "id": "5450873391"}, {"lat": -2.7517353, "lon": 33.4220249, "id": "5450873392"}, {"lat": -2.751738, "lon": 33.4219525, "id": "5450873393"}, {"lat": -2.751797, "lon": 33.4218881, "id": "5450873394"}, {"lat": -2.7518854, "lon": 33.4218479, "id": "5450873395"}, {"lat": -2.7520542, "lon": 33.4218425, "id": "5450873396"}, {"lat": -2.752156, "lon": 33.4218479, "id": "5450873397"}, {"lat": -2.7522685, "lon": 33.4218452, "id": "5450873398"}, {"lat": -2.7525364, "lon": 33.4218613, "id": "5450873399"}]}, {"id": "566101080", "uid": "7696275", "user": "Sweetnut", "version": 1, "tags": {"highway": "unclassified"}, "nodes": [{"lat": -2.7536214, "lon": 33.4220195, "id": "5450875300"}, {"lat": -2.7537554, "lon": 33.4221188, "id": "5450875301"}, {"lat": -2.7538492, "lon": 33.4221778, "id": "5450875302"}, {"lat": -2.753951, "lon": 33.4222073, "id": "5450875303"}, {"lat": -2.7540072, "lon": 33.4222046, "id": "5450875304"}, {"lat": -2.7540715, "lon": 33.4221751, "id": "5450875305"}, {"lat": -2.7541412, "lon": 33.4221509, "id": "5450875306"}, {"lat": -2.754176, "lon": 33.4221188, "id": "5450875307"}, {"lat": -2.7542296, "lon": 33.4221241, "id": "5450875308"}, {"lat": -2.7542805, "lon": 33.4221188, "id": "5450875309"}, {"lat": -2.7543341, "lon": 33.4221134, "id": "5450875310"}]}, {"user": "Sweetnut", "version": 3, "id": "566101269", "tags": {"highway": "unclassified"}, "uid": "7696275"}, {"user": "Sweetnut", "version": 2, "id": "566101331", "tags": {"highway": "unclassified"}, "uid": "7696275"}, {"id": "566101601", "uid": "7696275", "user": "Sweetnut", "version": 1, "tags": {"highway": "unclassified"}, "nodes": [{"lat": -2.7557509, "lon": 33.421608, "id": "5450882215"}, {"lat": -2.7558933, "lon": 33.4216601, "id": "5450882216"}, {"lat": -2.7560541, "lon": 33.4217513, "id": "5450882217"}, {"lat": -2.7562309, "lon": 33.4218371, "id": "5450882218"}, {"lat": -2.7563568, "lon": 33.4218908, "id": "5450882219"}]}, {"id": "566101649", "uid": "7696275", "user": "Sweetnut", "version": 1, "tags": {"highway": "unclassified"}, "nodes": [{"lat": -2.7563863, "lon": 33.4218237, "id": "5450880230"}, {"lat": -2.7561398, "lon": 33.422454, "id": "5450880231"}, {"lat": -2.7560034, "lon": 33.4226351, "id": "5450880232"}]}, {"id": "566141257", "uid": "6616734", "user": "Marvin de Hont", "version": 1, "tags": {"highway": "unclassified", "surface": "unpaved2"}, "nodes": [{"lat": -3.0196008, "lon": 33.8356998, "id": "5451363089"}, {"lat": -3.0195082, "lon": 33.8354242, "id": "5451363090"}, {"lat": -3.0196907, "lon": 33.8353318, "id": "5451363091"}]}, {"id": "566141258", "uid": "6616734", "user": "Marvin de Hont", "version": 1, "tags": {"highway": "unclassified", "surface": "unpaved"}, "nodes": [{"lat": -3.0195082, "lon": 33.8354242, "id": "5451363090"}, {"lat": -3.0191974, "lon": 33.8355302, "id": "5451363092"}, {"lat": -3.0189497, "lon": 33.8355956, "id": "5451363093"}, {"lat": -3.0186884, "lon": 33.835634, "id": "5451363094"}, {"lat": -3.0181411, "lon": 33.8356498, "id": "5451363095"}, {"lat": -3.0179316, "lon": 33.8356588, "id": "5451363096"}, {"lat": -3.0176546, "lon": 33.8356408, "id": "5451363097"}, {"lat": -3.0174062, "lon": 33.8355618, "id": "5451363098"}, {"lat": -3.0170503, "lon": 33.8354896, "id": "5451363099"}, {"lat": -3.0169667, "lon": 33.83551, "id": "5451363113"}]}, {"id": "566141260", "uid": "6616734", "user": "Marvin de Hont", "version": 1, "tags": {"highway": "unclassified", "surface": "unpaved"}, "nodes": [{"lat": -3.0173484, "lon": 33.8327413, "id": "5451363102"}, {"lat": -3.0173298, "lon": 33.8329143, "id": "5451363103"}, {"lat": -3.0172528, "lon": 33.8332157, "id": "5451363104"}, {"lat": -3.0172843, "lon": 33.8333909, "id": "5451363105"}, {"lat": -3.0173228, "lon": 33.8335381, "id": "5451363106"}, {"lat": -3.0173893, "lon": 33.8336783, "id": "5451363107"}, {"lat": -3.0173298, "lon": 33.8340919, "id": "5451363108"}, {"lat": -3.0172235, "lon": 33.834709, "id": "5451363109"}, {"lat": -3.0171592, "lon": 33.8350577, "id": "5451363110"}, {"lat": -3.0170092, "lon": 33.8350336, "id": "5451363111"}, {"lat": -3.0169663, "lon": 33.8351757, "id": "5451363112"}, {"lat": -3.0169667, "lon": 33.83551, "id": "5451363113"}]}, {"id": "566153683", "uid": "69016", "user": "erno", "version": 1, "tags": {"highway": "unclassified"}, "nodes": [{"lat": -2.7935263, "lon": 33.515934, "id": "5451484302"}, {"lat": -2.7933683, "lon": 33.5159022, "id": "5451484301"}, {"lat": -2.7931459, "lon": 33.5159183, "id": "5451484300"}]}, {"id": "566184028", "uid": "339912", "user": "markbegbie", "version": 1, "tags": {"highway": "unclassified"}, "nodes": [{"lat": -2.8453856, "lon": 33.5216919, "id": "5414659249"}, {"lat": -2.8456816, "lon": 33.5216961, "id": "5451848364"}, {"lat": -2.8458672, "lon": 33.5216587, "id": "5451848363"}, {"lat": -2.8460543, "lon": 33.5216169, "id": "5451848362"}, {"lat": -2.8461133, "lon": 33.5216097, "id": "5451848361"}, {"lat": -2.8461722, "lon": 33.5216328, "id": "5451848360"}, {"lat": -2.8463492, "lon": 33.5217869, "id": "5451848359"}, {"lat": -2.8464557, "lon": 33.5218762, "id": "5451848358"}, {"lat": -2.84666, "lon": 33.521931, "id": "5451848357"}, {"lat": -2.8468773, "lon": 33.5220477, "id": "5451848356"}, {"lat": -2.8469781, "lon": 33.522082, "id": "5451848355"}]}, {"id": "566195008", "uid": "6616734", "user": "Marvin de Hont", "version": 1, "tags": {"highway": "unclassified", "surface": "unpaved33"}, "nodes": [{"lat": -2.8765919, "lon": 33.6520375, "id": "5451973453"}, {"lat": -2.8766, "lon": 33.6524063, "id": "5451973454"}, {"lat": -2.8767045, "lon": 33.6528422, "id": "5451973455"}, {"lat": -2.8767607, "lon": 33.6534671, "id": "5451973456"}, {"lat": -2.8768011, "lon": 33.6536572, "id": "5451973734"}, {"lat": -2.8768491, "lon": 33.6538829, "id": "5451973457"}, {"lat": -2.8769147, "lon": 33.6541122, "id": "5451973458"}, {"lat": -2.8767473, "lon": 33.6542503, "id": "5451973459"}, {"lat": -2.8765812, "lon": 33.654717, "id": "5451973460"}, {"lat": -2.8764821, "lon": 33.6548364, "id": "5451973461"}, {"lat": -2.8765893, "lon": 33.655232, "id": "5451973462"}, {"lat": -2.8765638, "lon": 33.6554318, "id": "5451973467"}, {"lat": -2.8764647, "lon": 33.6555498, "id": "5451973468"}, {"lat": -2.8764948, "lon": 33.6556518, "id": "5451973469"}, {"lat": -2.8765857, "lon": 33.6558358, "id": "5451973470"}, {"lat": -2.8765876, "lon": 33.656198, "id": "5451973471"}, {"lat": -2.8765554, "lon": 33.6564351, "id": "5451973472"}, {"lat": -2.8765383, "lon": 33.6565941, "id": "5451973473"}, {"lat": -2.87658, "lon": 33.6567173, "id": "5451973474"}, {"lat": -2.87658, "lon": 33.6568008, "id": "5451973475"}, {"lat": -2.8766501, "lon": 33.6568634, "id": "5451973476"}, {"lat": -2.8767505, "lon": 33.657053, "id": "5451973477"}, {"lat": -2.8767978, "lon": 33.6571649, "id": "5451973478"}, {"lat": -2.8767922, "lon": 33.6572427, "id": "5451973479"}, {"lat": -2.8765606, "lon": 33.6575893, "id": "5451973786"}, {"lat": -2.8764474, "lon": 33.6577586, "id": "5451973480"}, {"lat": -2.8762997, "lon": 33.658045, "id": "5451973481"}, {"lat": -2.8761746, "lon": 33.6582669, "id": "5451973482"}]}, {"id": "566195016", "uid": "6616734", "user": "Marvin de Hont", "version": 1, "tags": {"highway": "unclassified", "surface": "unpaved"}, "nodes": [{"lat": -2.8768011, "lon": 33.6536572, "id": "5451973734"}, {"lat": -2.8765938, "lon": 33.653517, "id": "5451973735"}, {"lat": -2.875983, "lon": 33.6532381, "id": "5451973736"}, {"lat": -2.8757741, "lon": 33.6532166, "id": "5451973737"}, {"lat": -2.8756535, "lon": 33.6532595, "id": "5451973738"}, {"lat": -2.8753963, "lon": 33.6533936, "id": "5451973739"}, {"lat": -2.875099, "lon": 33.6536726, "id": "5451973740"}, {"lat": -2.8749168, "lon": 33.6540213, "id": "5451973741"}, {"lat": -2.87489, "lon": 33.6540803, "id": "5451973742"}, {"lat": -2.8747802, "lon": 33.6541339, "id": "5451973743"}, {"lat": -2.8744882, "lon": 33.6546838, "id": "5451973744"}]}, {"id": "566195017", "uid": "6616734", "user": "Marvin de Hont", "version": 1, "tags": {"highway": "unclassified", "surface": "unpaved"}, "nodes": [{"lat": -2.8744882, "lon": 33.6546838, "id": "5451973744"}]}, {"id": "566195021", "uid": "6616734", "user": "Marvin de Hont", "version": 1, "tags": {"highway": "unclassified", "surface": "unpaved"}, "nodes": [{"lat": -2.8694331, "lon": 33.6614481, "id": "5451973780"}]}, {"id": "566195024", "uid": "6616734", "user": "Marvin de Hont", "version": 1, "tags": {"highway": "unclassified", "surface": "unpaved"}, "nodes": [{"lat": -2.8682001, "lon": 33.6590596, "id": "5451973760"}, {"lat": -2.8685553, "lon": 33.6588928, "id": "5451973761"}, {"lat": -2.8685869, "lon": 33.6589324, "id": "5451973762"}, {"lat": -2.8686866, "lon": 33.6588294, "id": "5451973763"}, {"lat": -2.8687973, "lon": 33.6587803, "id": "5451973764"}]}, {"id": "566195026", "uid": "6616734", "user": "Marvin de Hont", "version": 1, "tags": {"highway": "unclassified", "surface": "unpaved"}, "nodes": [{"lat": -2.8685869, "lon": 33.6589324, "id": "5451973762"}, {"lat": -2.8686217, "lon": 33.6589862, "id": "5451973765"}, {"lat": -2.8687293, "lon": 33.6591715, "id": "5451973766"}, {"lat": -2.8688907, "lon": 33.6593695, "id": "5451973767"}, {"lat": -2.8689539, "lon": 33.6594392, "id": "5451973768"}, {"lat": -2.8689334, "lon": 33.6596261, "id": "5451973769"}, {"lat": -2.8688701, "lon": 33.6596894, "id": "5451973770"}, {"lat": -2.8689128, "lon": 33.6597639, "id": "5451973771"}, {"lat": -2.8690156, "lon": 33.659813, "id": "5451973772"}, {"lat": -2.8689713, "lon": 33.6601123, "id": "5451973773"}, {"lat": -2.8688812, "lon": 33.660258, "id": "5451973774"}, {"lat": -2.8689096, "lon": 33.6606144, "id": "5451973775"}, {"lat": -2.8689792, "lon": 33.6607284, "id": "5451973776"}, {"lat": -2.8690299, "lon": 33.6608821, "id": "5451973777"}, {"lat": -2.8689792, "lon": 33.6611228, "id": "5451973778"}, {"lat": -2.8690694, "lon": 33.661221, "id": "5451973779"}, {"lat": -2.8694331, "lon": 33.6614481, "id": "5451973780"}]}, {"id": "566195028", "uid": "6616734", "user": "Marvin de Hont", "version": 1, "tags": {"highway": "unclassified", "surface": "unpaved-"}, "nodes": [{"lat": -2.8765606, "lon": 33.6575893, "id": "5451973786"}, {"lat": -2.8767285, "lon": 33.6578591, "id": "5451973787"}, {"lat": -2.8768207, "lon": 33.6581085, "id": "5451973788"}, {"lat": -2.8768364, "lon": 33.6583676, "id": "5451973789"}, {"lat": -2.8769383, "lon": 33.6586641, "id": "5451973790"}, {"lat": -2.8771815, "lon": 33.6588016, "id": "5451973791"}, {"lat": -2.8772325, "lon": 33.6588428, "id": "5451973792"}, {"lat": -2.8773129, "lon": 33.6589331, "id": "5451973793"}, {"lat": -2.877358, "lon": 33.6590352, "id": "5451973794"}]}, {"id": "566197621", "uid": "6616734", "user": "Marvin de Hont", "version": 1, "tags": {"highway": "unclassified", "surface": "unpaved"}, "nodes": [{"lat": -2.8882877, "lon": 33.6873171, "id": "5451999598"}, {"lat": -2.8883627, "lon": 33.68747, "id": "5451999599"}, {"lat": -2.8884002, "lon": 33.6877945, "id": "5451999600"}, {"lat": -2.8883976, "lon": 33.6878964, "id": "5451999601"}, {"lat": -2.8885556, "lon": 33.6881968, "id": "5451999602"}, {"lat": -2.8885851, "lon": 33.688508, "id": "5451999583"}, {"lat": -2.8885074, "lon": 33.6885938, "id": "5451999603"}, {"lat": -2.8884163, "lon": 33.6886475, "id": "5451999604"}, {"lat": -2.8880551, "lon": 33.6887004, "id": "5451999605"}]}, {"id": "566200304", "uid": "6616734", "user": "Marvin de Hont", "version": 1, "tags": {"highway": "unclassified", "surface": "unpaved"}, "nodes": [{"lat": -2.8911351, "lon": 33.6901485, "id": "5452031199"}, {"lat": -2.890973, "lon": 33.6902384, "id": "5452031198"}, {"lat": -2.8908641, "lon": 33.6903187, "id": "5452030103"}, {"lat": -2.8909783, "lon": 33.6906179, "id": "5452031197"}, {"lat": -2.890969, "lon": 33.6907869, "id": "5452031196"}, {"lat": -2.8908658, "lon": 33.6909961, "id": "5452031195"}, {"lat": -2.890827, "lon": 33.6913956, "id": "5452031194"}, {"lat": -2.8908899, "lon": 33.6917858, "id": "5452031193"}, {"lat": -2.8908591, "lon": 33.6919812, "id": "5452030116"}, {"lat": -2.8906917, "lon": 33.6923741, "id": "5452030117"}, {"lat": -2.8905404, "lon": 33.6926638, "id": "5452030118"}, {"lat": -2.8904908, "lon": 33.692818, "id": "5452030119"}, {"lat": -2.8905069, "lon": 33.6932646, "id": "5452030120"}, {"lat": -2.8906006, "lon": 33.6933767, "id": "5452031191"}, {"lat": -2.8908066, "lon": 33.6934609, "id": "5452031192"}]}, {"user": "Marvin de Hont", "version": 2, "id": "566200970", "tags": {"highway": "unclassified", "surface": "unpaved="}, "uid": "6616734"}, {"id": "566200971", "uid": "6616734", "user": "Marvin de Hont", "version": 1, "tags": {"highway": "unclassified", "surface": "unpaved"}, "nodes": [{"lat": -2.8908641, "lon": 33.6903187, "id": "5452030103"}, {"lat": -2.8907724, "lon": 33.6902478, "id": "5452038946"}, {"lat": -2.8905249, "lon": 33.6901775, "id": "5452038947"}, {"lat": -2.8902173, "lon": 33.69, "id": "5452038948"}, {"lat": -2.890117, "lon": 33.6898393, "id": "5452038949"}, {"lat": -2.8899464, "lon": 33.6896853, "id": "5452038950"}, {"lat": -2.8897926, "lon": 33.6896451, "id": "5452038951"}, {"lat": -2.8894214, "lon": 33.689635, "id": "5452038952"}, {"lat": -2.8892341, "lon": 33.6896518, "id": "5452038953"}, {"lat": -2.889087, "lon": 33.6896049, "id": "5452038954"}, {"lat": -2.8884255, "lon": 33.6896531, "id": "5452030078"}]}, {"id": "566204680", "uid": "6616734", "user": "Marvin de Hont", "version": 1, "tags": {"highway": "unclassified", "surface": "unpaved"}, "nodes": [{"lat": -2.8989325, "lon": 33.6892255, "id": "5452085428"}, {"lat": -2.8987784, "lon": 33.6889369, "id": "5452085429"}, {"lat": -2.8986376, "lon": 33.688749, "id": "5452085430"}, {"lat": -2.8984343, "lon": 33.6885969, "id": "5452085431"}, {"lat": -2.8984008, "lon": 33.6885231, "id": "5452085432"}, {"lat": -2.8983495, "lon": 33.6882077, "id": "5452085433"}, {"lat": -2.8982623, "lon": 33.6880556, "id": "5452085434"}, {"lat": -2.8982221, "lon": 33.6878834, "id": "5452085435"}, {"lat": -2.8982445, "lon": 33.6878275, "id": "5452085436"}, {"lat": -2.8982177, "lon": 33.687738, "id": "5452085437"}, {"lat": -2.8981395, "lon": 33.6876217, "id": "5452085438"}, {"lat": -2.8981328, "lon": 33.6875613, "id": "5452085439"}, {"lat": -2.8981305, "lon": 33.6873868, "id": "5452085440"}, {"lat": -2.8981573, "lon": 33.6873309, "id": "5452085441"}, {"lat": -2.898269, "lon": 33.6871877, "id": "5452085442"}, {"lat": -2.8983048, "lon": 33.6868724, "id": "5452085443"}, {"lat": -2.8982802, "lon": 33.6858815, "id": "5452085444"}, {"lat": -2.898412, "lon": 33.6857875, "id": "5452085445"}, {"lat": -2.8985661, "lon": 33.6856421, "id": "5452085446"}, {"lat": -2.8986309, "lon": 33.6854296, "id": "5452085447"}, {"lat": -2.8987694, "lon": 33.6853111, "id": "5452085448"}, {"lat": -2.8988253, "lon": 33.6852731, "id": "5452085449"}, {"lat": -2.8988186, "lon": 33.6849689, "id": "5452085450"}, {"lat": -2.8988074, "lon": 33.6848279, "id": "5452085451"}, {"lat": -2.8990085, "lon": 33.6847519, "id": "5452085452"}, {"lat": -2.8990665, "lon": 33.6846893, "id": "5452085453"}, {"lat": -2.8990844, "lon": 33.6843672, "id": "5452085454"}, {"lat": -2.8991782, "lon": 33.684318, "id": "5452085455"}, {"lat": -2.8993393, "lon": 33.6840778, "id": "5451600283"}]}, {"id": "566206504", "uid": "6616734", "user": "Marvin de Hont", "version": 1, "tags": {"highway": "unclassified", "surface": "unpaved2"}, "nodes": [{"lat": -2.8979098, "lon": 33.6904017, "id": "5452127253"}, {"lat": -2.8980625, "lon": 33.691967, "id": "5452127254"}, {"lat": -2.8979072, "lon": 33.6921226, "id": "5452127255"}, {"lat": -2.8976339, "lon": 33.6921869, "id": "5452127256"}, {"lat": -2.8973768, "lon": 33.6923693, "id": "5452127257"}, {"lat": -2.8967124, "lon": 33.6925732, "id": "5452127258"}, {"lat": -2.8962463, "lon": 33.6926697, "id": "5452127259"}]}, {"id": "566207466", "uid": "7158975", "user": "lentillian", "version": 1, "tags": {"highway": "unclassified"}, "nodes": [{"lat": -2.844418, "lon": 33.600377, "id": "5452147621"}, {"lat": -2.8446516, "lon": 33.6005611, "id": "5452147622"}, {"lat": -2.8449696, "lon": 33.6006606, "id": "5452147623"}, {"lat": -2.8456704, "lon": 33.6009044, "id": "5452147624"}, {"lat": -2.8462172, "lon": 33.6010985, "id": "5452147625"}, {"lat": -2.8463166, "lon": 33.6014021, "id": "5452147626"}, {"lat": -2.846411, "lon": 33.6016658, "id": "5452147627"}, {"lat": -2.8467092, "lon": 33.6019296, "id": "5452147628"}, {"lat": -2.8470571, "lon": 33.602467, "id": "5452147629"}, {"lat": -2.8475243, "lon": 33.6030244, "id": "5452147630"}, {"lat": -2.8476958, "lon": 33.6032607, "id": "5452147631"}, {"lat": -2.847825, "lon": 33.6034449, "id": "5452147632"}, {"lat": -2.8480189, "lon": 33.603629, "id": "5452147633"}, {"lat": -2.8481531, "lon": 33.6037435, "id": "5452147634"}, {"lat": -2.8483419, "lon": 33.6038355, "id": "5452147635"}, {"lat": -2.8486377, "lon": 33.6039948, "id": "5452147636"}]}, {"id": "566207484", "uid": "7158975", "user": "lentillian", "version": 1, "tags": {"highway": "unclassified"}, "nodes": [{"lat": -2.8462172, "lon": 33.6010985, "id": "5452147625"}, {"lat": -2.8464144, "lon": 33.6011937, "id": "5452147705"}, {"lat": -2.8466532, "lon": 33.6012389, "id": "5452147706"}, {"lat": -2.8468048, "lon": 33.6012777, "id": "5452147707"}, {"lat": -2.8469081, "lon": 33.6012292, "id": "5452147708"}, {"lat": -2.846992, "lon": 33.6012292, "id": "5452147709"}, {"lat": -2.8472372, "lon": 33.6012809, "id": "5452147710"}, {"lat": -2.8474255, "lon": 33.6013465, "id": "5452147711"}, {"lat": -2.8475984, "lon": 33.601421, "id": "5452147712"}, {"lat": -2.8476485, "lon": 33.6014781, "id": "5452147713"}, {"lat": -2.8476918, "lon": 33.6016339, "id": "5452147714"}, {"lat": -2.8477246, "lon": 33.6017932, "id": "5452147715"}, {"lat": -2.8477851, "lon": 33.6020061, "id": "5452147716"}, {"lat": -2.847863, "lon": 33.6022883, "id": "5452147717"}, {"lat": -2.8478872, "lon": 33.6023264, "id": "5452147718"}, {"lat": -2.8479892, "lon": 33.6023229, "id": "5452147719"}, {"lat": -2.8481742, "lon": 33.60229, "id": "5452147720"}, {"lat": -2.8484093, "lon": 33.6022554, "id": "5452147721"}, {"lat": -2.8485736, "lon": 33.6022294, "id": "5452147722"}, {"lat": -2.8486583, "lon": 33.6022537, "id": "5452147723"}, {"lat": -2.8487792, "lon": 33.6022657, "id": "5452147724"}]}, {"id": "566207540", "uid": "7685159", "user": "David G Aragon\u00e9s", "version": 1, "tags": {"highway": "unclassified"}, "nodes": [{"lat": -2.9330227, "lon": 33.5098086, "id": "5452148467"}, {"lat": -2.9328955, "lon": 33.509905, "id": "5452148468"}, {"lat": -2.9327752, "lon": 33.5100186, "id": "5452148469"}]}, {"user": "David G Aragon\u00e9s", "version": 3, "id": "566207681", "tags": {"highway": "unclassified"}, "uid": "7685159"}, {"id": "566207988", "uid": "7685159", "user": "David G Aragon\u00e9s", "version": 1, "tags": {"highway": "unclassified"}, "nodes": [{"lat": -2.9353877, "lon": 33.5090079, "id": "5407606091"}, {"lat": -2.9353257, "lon": 33.5088405, "id": "5452152012"}, {"lat": -2.9353084, "lon": 33.5087961, "id": "5452152013"}, {"lat": -2.9353405, "lon": 33.5086381, "id": "5452152014"}, {"lat": -2.9353701, "lon": 33.5084728, "id": "5452152015"}, {"lat": -2.9353824, "lon": 33.5083815, "id": "5452152016"}, {"lat": -2.9353799, "lon": 33.5083099, "id": "5452152017"}]}, {"id": "566208187", "uid": "7685159", "user": "David G Aragon\u00e9s", "version": 1, "tags": {"highway": "unclassified"}, "nodes": [{"lat": -2.9353877, "lon": 33.5090079, "id": "5407606091"}, {"lat": -2.93555, "lon": 33.5089522, "id": "5452151269"}, {"lat": -2.935688, "lon": 33.5089152, "id": "5452151270"}, {"lat": -2.935863, "lon": 33.5088806, "id": "5452151271"}, {"lat": -2.9359862, "lon": 33.5088288, "id": "5452151272"}, {"lat": -2.9361292, "lon": 33.5087844, "id": "5452151273"}, {"lat": -2.9363634, "lon": 33.5087326, "id": "5452151274"}, {"lat": -2.9365532, "lon": 33.5086659, "id": "5452151275"}, {"lat": -2.9367578, "lon": 33.508545, "id": "5452151276"}, {"lat": -2.9369084, "lon": 33.5084523, "id": "5407606092"}]}, {"id": "566208745", "uid": "7685159", "user": "David G Aragon\u00e9s", "version": 1, "tags": {"highway": "unclassified"}, "nodes": [{"lat": -2.9353433, "lon": 33.5121957, "id": "5452149903"}, {"lat": -2.9352412, "lon": 33.5124801, "id": "5452160410"}, {"lat": -2.9351154, "lon": 33.5127972, "id": "5452160411"}, {"lat": -2.9350666, "lon": 33.5129842, "id": "5452160412"}, {"lat": -2.935091, "lon": 33.5132891, "id": "5452160413"}, {"lat": -2.9351316, "lon": 33.5137688, "id": "5452160414"}, {"lat": -2.935225, "lon": 33.5140046, "id": "5452160415"}, {"lat": -2.9351763, "lon": 33.5143746, "id": "5452160416"}, {"lat": -2.9351235, "lon": 33.5146714, "id": "5452160417"}, {"lat": -2.9350991, "lon": 33.5148746, "id": "5452160418"}]}, {"id": "566208972", "uid": "7158975", "user": "lentillian", "version": 1, "tags": {"highway": "unclassified"}, "nodes": [{"lat": -2.849579, "lon": 33.6061751, "id": "5452161595"}, {"lat": -2.849686, "lon": 33.6061396, "id": "5452161596"}, {"lat": -2.8498057, "lon": 33.6061009, "id": "5452161597"}, {"lat": -2.8499513, "lon": 33.6060585, "id": "5452161598"}, {"lat": -2.8500121, "lon": 33.6060345, "id": "5452161599"}, {"lat": -2.8500287, "lon": 33.605933, "id": "5452161600"}, {"lat": -2.8500581, "lon": 33.6058371, "id": "5452161601"}, {"lat": -2.8501337, "lon": 33.6057707, "id": "5452161602"}, {"lat": -2.8501982, "lon": 33.6056877, "id": "5452161603"}, {"lat": -2.850247, "lon": 33.6055917, "id": "5452161604"}, {"lat": -2.8503363, "lon": 33.6054248, "id": "5452161605"}, {"lat": -2.8504349, "lon": 33.6053076, "id": "5452161606"}, {"lat": -2.8505482, "lon": 33.6051601, "id": "5452161607"}, {"lat": -2.8506265, "lon": 33.6050392, "id": "5452161608"}, {"lat": -2.8506818, "lon": 33.6049654, "id": "5452161609"}, {"lat": -2.8507656, "lon": 33.6049193, "id": "5452161610"}, {"lat": -2.8508108, "lon": 33.6048981, "id": "5452161611"}, {"lat": -2.8508817, "lon": 33.604745, "id": "5452161612"}, {"lat": -2.8509757, "lon": 33.6045043, "id": "5452161613"}, {"lat": -2.8510466, "lon": 33.6043106, "id": "5452161614"}, {"lat": -2.8510991, "lon": 33.6041325, "id": "5452161615"}, {"lat": -2.8511535, "lon": 33.6040302, "id": "5452161616"}, {"lat": -2.851229, "lon": 33.6039305, "id": "5452161617"}, {"lat": -2.8512695, "lon": 33.603842, "id": "5452161618"}, {"lat": -2.8512972, "lon": 33.6037618, "id": "5452161619"}, {"lat": -2.851311, "lon": 33.60364, "id": "5452161620"}, {"lat": -2.8513239, "lon": 33.6035293, "id": "5452161921"}, {"lat": -2.8513276, "lon": 33.6034269, "id": "5452161922"}, {"lat": -2.8513147, "lon": 33.6033218, "id": "5452161923"}, {"lat": -2.8512567, "lon": 33.6030976, "id": "5452161924"}, {"lat": -2.8511049, "lon": 33.6027892, "id": "5452161925"}, {"lat": -2.8510449, "lon": 33.6026346, "id": "5452161926"}, {"lat": -2.8510118, "lon": 33.6025125, "id": "5452161927"}, {"lat": -2.8510118, "lon": 33.6023317, "id": "5452161928"}, {"lat": -2.8509908, "lon": 33.602135, "id": "5452161929"}, {"lat": -2.8509328, "lon": 33.6019368, "id": "5452161930"}, {"lat": -2.8509004, "lon": 33.601814, "id": "5452161931"}, {"lat": -2.8508754, "lon": 33.6016735, "id": "5452161932"}, {"lat": -2.8508225, "lon": 33.6013832, "id": "5452161933"}, {"lat": -2.8506357, "lon": 33.6009994, "id": "5452161934"}, {"lat": -2.8505919, "lon": 33.6007365, "id": "5452161935"}, {"lat": -2.850528, "lon": 33.6005173, "id": "5452161936"}, {"lat": -2.850336, "lon": 33.6000284, "id": "5452161937"}, {"lat": -2.8502855, "lon": 33.5997857, "id": "5452161938"}, {"lat": -2.850107, "lon": 33.5995497, "id": "5452161939"}, {"lat": -2.8500442, "lon": 33.5995021, "id": "5452161940"}]}, {"id": "566208973", "uid": "7158975", "user": "lentillian", "version": 1, "tags": {"highway": "unclassified"}, "nodes": [{"lat": -2.853253, "lon": 33.5975346, "id": "5452161941"}, {"lat": -2.8530343, "lon": 33.5974798, "id": "5452161942"}, {"lat": -2.8529019, "lon": 33.5974971, "id": "5452161943"}, {"lat": -2.8527811, "lon": 33.5975202, "id": "5452161944"}, {"lat": -2.8526214, "lon": 33.5975346, "id": "5452161945"}, {"lat": -2.8524674, "lon": 33.5975245, "id": "5452161946"}, {"lat": -2.8523134, "lon": 33.5975389, "id": "5452161947"}, {"lat": -2.8522415, "lon": 33.5975389, "id": "5452161948"}, {"lat": -2.852112, "lon": 33.5975483, "id": "5452161949"}, {"lat": -2.8519153, "lon": 33.5975669, "id": "5452161950"}, {"lat": -2.8517312, "lon": 33.5975811, "id": "5452161951"}, {"lat": -2.8515572, "lon": 33.5975953, "id": "5452161952"}, {"lat": -2.8513615, "lon": 33.5976457, "id": "5452161953"}, {"lat": -2.8511447, "lon": 33.5977438, "id": "5452161954"}, {"lat": -2.8509112, "lon": 33.5978377, "id": "5452161955"}, {"lat": -2.850711, "lon": 33.5979358, "id": "5452161956"}, {"lat": -2.8504108, "lon": 33.598107, "id": "5452161957"}, {"lat": -2.850244, "lon": 33.598251, "id": "5452161958"}, {"lat": -2.8501723, "lon": 33.5982949, "id": "5452161959"}]}, {"user": "David G Aragon\u00e9s", "version": 3, "id": "566209949", "tags": {"highway": "unclassified"}, "uid": "7685159"}]