[{"user": "houtari", "uid": "2186388", "version": 9, "id": "295123466", "tags": {"highway": "tertiary", "source": "bing", "surface": "unpaved"}}, {"user": "DenisGG", "uid": "5242841", "version": 5, "id": "431259281", "tags": {"highway": "tertiary", "surface": "unpaved", "source": "msd.or.tz & deliver.jsi.com", "source:date": "2014..2015"}}, {"user": "DenisGG", "uid": "5242841", "version": 7, "id": "435764090", "tags": {"highway": "tertiary"}}, {"user": "tmur", "uid": "5283470", "version": 22, "id": "438957583", "tags": {"highway": "tertiary", "surface": "unpaved", "source": "msd.or.tz & deliver.jsi.com", "source:date": "2014..2015"}}, {"user": "sab27", "uid": "4367139", "version": 34, "id": "438969483", "tags": {"highway": "tertiary", "surface": "unpaved", "source": "msd.or.tz & deliver.jsi.com", "source:date": "2014..2015"}}, {"user": "Jon Rice", "uid": "4928422", "version": 12, "id": "440642960", "tags": {"highway": "tertiary", "surface": "unpaved", "name": "Road to Lela"}}, {"user": "tmur", "uid": "5283470", "version": 26, "id": "442439127", "tags": {"highway": "tertiary", "surface": "unpaved"}}, {"user": "sssumsss", "uid": "3403658", "version": 3, "id": "452337585", "tags": {"highway": "tertiary"}}, {"user": "DenisGG", "uid": "5242841", "version": 3, "id": "452685516", "tags": {"highway": "tertiary"}}, {"user": "venlamapping", "uid": "5248639", "version": 5, "id": "453784724", "tags": {"highway": "tertiary"}}, {"user": "JamesOHaza", "uid": "4579993", "version": 4, "id": "455784478", "tags": {"highway": "tertiary"}}, {"user": "HeiAnniHei", "uid": "5283129", "version": 2, "id": "466458347", "tags": {"highway": "tertiary"}}, {"user": "HeiAnniHei", "uid": "5283129", "version": 4, "id": "467565073", "tags": {"highway": "tertiary"}}, {"user": "joukop", "tags": {"highway": "tertiary"}, "nodes": [{"id": "4675081197", "lat": -1.2527062, "lon": 33.9918247}, {"id": "4675081198", "lat": -1.2523072, "lon": 33.9915664}, {"id": "4675081199", "lat": -1.2518951, "lon": 33.9913655}, {"id": "4675081200", "lat": -1.2514908, "lon": 33.9911699}, {"id": "4675081201", "lat": -1.2510995, "lon": 33.9909794}, {"id": "4675081202", "lat": -1.2507031, "lon": 33.9907759}, {"id": "4675081203", "lat": -1.2502936, "lon": 33.990549}, {"id": "4675081204", "lat": -1.2499102, "lon": 33.9903507}, {"id": "4675081205", "lat": -1.2495581, "lon": 33.9901628}], "uid": "3889299", "version": 1, "id": "473387247"}]