[{"user": "AndresMoreno", "version": 9, "id": "40768182", "uid": "572558", "tags": {"name": "Carrera 1", "mechanical": "yes", "highway": "residential", "oneway": "yes"}}, {"user": "Federica Kallio", "version": 5, "id": "40768189", "uid": "3696012", "tags": {"name": "Calle 5", "highway": "residential"}}, {"user": "suwyslam", "version": 6, "id": "40946040", "uid": "3403645", "tags": {"name": "carrera 4A", "highway": "residential"}}, {"user": "aiahola", "version": 6, "id": "76695134", "uid": "4848041", "tags": {"name": "comuna 1", "highway": "residential"}}, {"user": "aiahola", "version": 3, "id": "76695157", "uid": "4848041", "tags": {"name": "comuna 1", "highway": "residential"}}, {"user": "aiahola", "version": 3, "id": "76695206", "uid": "4848041", "tags": {"name": "comuna 1", "highway": "residential"}}, {"user": "Matti Hetem\u00e4ki", "version": 5, "id": "76695333", "uid": "8069590", "tags": {"name": "Calle 29K5", "highway": "residential"}}, {"user": "MarkoKallio", "version": 7, "id": "76913192", "uid": "3686638", "tags": {"name": "santa Marta - cerro kenedy", "highway": "residential"}}, {"user": "IidAut", "version": 4, "id": "78330372", "uid": "5456253", "tags": {"name": "calle 5", "highway": "residential"}}, {"user": "AndresMoreno", "version": 5, "id": "78427379", "uid": "572558", "tags": {"name": "Calle 20", "highway": "residential"}}, {"user": "Mjaia", "version": 5, "id": "78535080", "uid": "5278357", "tags": {"highway": "residential"}}, {"user": "Juloree", "version": 4, "id": "79827339", "uid": "8069519", "tags": {"highway": "residential"}}, {"user": "Juloree", "version": 5, "id": "80164338", "uid": "8069519", "tags": {"highway": "residential"}}, {"user": "juliaker", "version": 6, "id": "80164420", "uid": "3403656", "tags": {"name": "Calle 38", "highway": "residential"}}, {"user": "Matti Hetem\u00e4ki", "version": 4, "id": "153659432", "uid": "8069590", "tags": {"name": "Carrera 21E", "highway": "residential"}}, {"user": "KaisaH", "version": 4, "id": "247342209", "uid": "4611452", "tags": {"name": "Calle 29", "highway": "residential"}}, {"user": "Tadusko", "version": 2, "id": "247763237", "uid": "3240079", "tags": {"name": "calle 31A", "highway": "residential"}}, {"user": "jalonpa", "version": 2, "id": "248757601", "uid": "3418118", "tags": {"name": "calle 9A", "highway": "residential"}}, {"user": "IidAut", "version": 2, "id": "265627787", "uid": "5456253", "tags": {"name": "carrera 2B", "highway": "residential"}}, {"user": "HannaKstn", "version": 4, "id": "265869004", "uid": "3403646", "tags": {"name": "calle 9F1", "highway": "residential"}}, {"user": "susannaanas", "version": 4, "id": "265965487", "uid": "968323", "tags": {"name": "Carrera 5", "highway": "residential"}}, {"user": "IlariS", "version": 2, "id": "266001744", "uid": "37720", "tags": {"name": "calle 48", "highway": "residential"}}, {"user": "IlariS", "version": 2, "id": "266001747", "uid": "37720", "tags": {"name": "calle 47", "highway": "residential"}}, {"user": "KimmoJ", "version": 4, "id": "266014696", "uid": "3737731", "tags": {"name": "carrera 10", "highway": "residential"}}, {"user": "Pinja-Liina", "version": 3, "id": "266162617", "uid": "4611269", "tags": {"name": "carrera 20", "highway": "residential"}}, {"user": "Pinja-Liina", "version": 2, "id": "266194995", "uid": "4611269", "tags": {"name": "carrera 20", "highway": "residential"}}, {"user": "aiahola", "version": 2, "id": "266868753", "uid": "4848041", "tags": {"name": "comuna 1", "highway": "residential"}}, {"user": "Matti Hetem\u00e4ki", "version": 3, "id": "268942174", "uid": "8069590", "tags": {"name": "Calle 29L1", "highway": "residential"}}, {"user": "jalonpa", "version": 2, "id": "269953870", "uid": "3418118", "tags": {"name": "Calle 27F 79", "highway": "residential"}}, {"user": "Tadusko", "version": 2, "id": "270761078", "uid": "3240079", "tags": {"name": "Calle 10A", "highway": "residential"}}, {"user": "HannaKstn", "version": 4, "id": "271027100", "uid": "3403646", "tags": {"name": "Carrera 58C", "highway": "residential"}}, {"user": "HannaKstn", "version": 3, "id": "271172658", "uid": "3403646", "tags": {"name": "Carrera 59", "highway": "residential"}}, {"user": "HannaKstn", "version": 4, "id": "271172659", "uid": "3403646", "tags": {"name": "Carrera 59A", "highway": "residential"}}, {"user": "AndresMoreno", "version": 3, "id": "271910783", "uid": "572558", "tags": {"name": "Calle 8", "highway": "residential"}}, {"user": "PinjaT", "version": 2, "id": "289316623", "uid": "7952456", "tags": {"highway": "residential"}}, {"user": "suwyslam", "version": 1, "uid": "3403645", "nodes": [{"lon": -74.2218798, "lat": 11.2112828, "id": "5531208225"}, {"lon": -74.2215899, "lat": 11.2114506, "id": "5531208226"}, {"lon": -74.2213105, "lat": 11.2117213, "id": "5531208227"}, {"lon": -74.2209786, "lat": 11.2118789, "id": "5531208228"}, {"lon": -74.2208075, "lat": 11.2119783, "id": "5531208229"}, {"lon": -74.2199197, "lat": 11.2111287, "id": "5531208230"}], "id": "576801950", "tags": {"highway": "residential"}}, {"user": "suwyslam", "version": 1, "uid": "3403645", "nodes": [{"lon": -74.2223828, "lat": 11.2101624, "id": "5531208231"}, {"lon": -74.222051, "lat": 11.2109881, "id": "5531208232"}], "id": "576801951", "tags": {"highway": "residential"}}, {"user": "Tilmakari", "version": 1, "uid": "7957046", "nodes": [{"lon": -74.162589, "lat": 11.2533803, "id": "5531219907"}, {"lon": -74.1625222, "lat": 11.2532892, "id": "5531219906"}, {"lon": -74.1623852, "lat": 11.2530892, "id": "5531219905"}, {"lon": -74.1622824, "lat": 11.2529308, "id": "5531219904"}, {"lon": -74.1622025, "lat": 11.2527453, "id": "5531219903"}, {"lon": -74.1619504, "lat": 11.2525832, "id": "5531222059"}, {"lon": -74.1618616, "lat": 11.2525261, "id": "5531219902"}, {"lon": -74.1615943, "lat": 11.252328, "id": "5531219901"}], "id": "576803970", "tags": {"highway": "residential"}}, {"user": "Tilmakari", "version": 1, "uid": "7957046", "nodes": [{"lon": -74.162589, "lat": 11.2533803, "id": "5531219907"}, {"lon": -74.1627586, "lat": 11.2534907, "id": "5531219908"}], "id": "576803971", "tags": {"highway": "residential"}}, {"user": "Tilmakari", "version": 1, "uid": "7957046", "nodes": [{"lon": -74.1627586, "lat": 11.2534907, "id": "5531219908"}, {"lon": -74.1629217, "lat": 11.2536059, "id": "5531219909"}, {"lon": -74.1630278, "lat": 11.2536907, "id": "5531219910"}], "id": "576803972", "tags": {"highway": "residential"}}, {"user": "Tilmakari", "version": 1, "uid": "7957046", "nodes": [{"lon": -74.1630278, "lat": 11.2536907, "id": "5531219910"}, {"lon": -74.163261, "lat": 11.2538522, "id": "5531219911"}], "id": "576803973", "tags": {"highway": "residential"}}, {"user": "Tilmakari", "version": 1, "uid": "7957046", "nodes": [{"lon": -74.1623852, "lat": 11.2530892, "id": "5531219905"}, {"lon": -74.1627945, "lat": 11.2525437, "id": "5531219912"}], "id": "576803974", "tags": {"highway": "residential"}}, {"user": "Tilmakari", "version": 1, "uid": "7957046", "nodes": [{"lon": -74.1619504, "lat": 11.2525832, "id": "5531222059"}, {"lon": -74.161709, "lat": 11.2528938, "id": "5531222060"}], "id": "576803988", "tags": {"highway": "residential"}}, {"user": "Tilmakari", "version": 1, "uid": "7957046", "nodes": [{"lon": -74.161709, "lat": 11.2528938, "id": "5531222060"}, {"lon": -74.1615656, "lat": 11.2531021, "id": "5531222061"}], "id": "576803989", "tags": {"highway": "residential"}}, {"user": "Tilmakari", "version": 1, "uid": "7957046", "nodes": [{"lon": -74.1615656, "lat": 11.2531021, "id": "5531222061"}, {"lon": -74.161384, "lat": 11.2533354, "id": "5531222062"}], "id": "576803990", "tags": {"highway": "residential"}}, {"user": "Tilmakari", "version": 1, "uid": "7957046", "nodes": [{"lon": -74.161384, "lat": 11.2533354, "id": "5531222062"}, {"lon": -74.1610989, "lat": 11.2536935, "id": "5531222064"}], "id": "576803991", "tags": {"highway": "residential"}}, {"user": "Tilmakari", "version": 1, "uid": "7957046", "nodes": [{"lon": -74.1607762, "lat": 11.2532839, "id": "5531222063"}, {"lon": -74.1610989, "lat": 11.2536935, "id": "5531222064"}], "id": "576803992", "tags": {"highway": "residential"}}, {"user": "Tilmakari", "version": 1, "uid": "7957046", "nodes": [{"lon": -74.1610989, "lat": 11.2536935, "id": "5531222064"}, {"lon": -74.1611297, "lat": 11.2537317, "id": "5531222171"}, {"lon": -74.161227, "lat": 11.2538524, "id": "5531222065"}], "id": "576803993", "tags": {"highway": "residential"}}, {"user": "KimmoJ", "version": 1, "uid": "3737731", "nodes": [{"lon": -74.2123611, "lat": 11.2196307, "id": "5531228351"}, {"lon": -74.211981, "lat": 11.2193422, "id": "5531228352"}], "id": "576804979", "tags": {"highway": "residential"}}, {"user": "kjun", "version": 1, "uid": "8069011", "nodes": [{"lon": -74.230739, "lat": 11.169828, "id": "3534348754"}, {"lon": -74.2301271, "lat": 11.1700625, "id": "5531238536"}], "id": "576805993", "tags": {"highway": "residential"}}, {"user": "HannaKstn", "version": 1, "uid": "3403646", "nodes": [{"lon": -74.1652103, "lat": 11.2489794, "id": "5531258137"}, {"lon": -74.1652065, "lat": 11.248821, "id": "5531258138"}, {"lon": -74.1652295, "lat": 11.2487418, "id": "5531258139"}, {"lon": -74.1653276, "lat": 11.2485814, "id": "5531258140"}, {"lon": -74.16539, "lat": 11.2483343, "id": "5531258141"}, {"lon": -74.1654135, "lat": 11.2481419, "id": "5531258142"}], "id": "576808478", "tags": {"highway": "residential"}}, {"user": "Pinja-Liina", "version": 1, "uid": "4611269", "nodes": [{"lon": -74.1953712, "lat": 11.2165113, "id": "5531272181"}, {"lon": -74.195389, "lat": 11.2164458, "id": "5531272182"}, {"lon": -74.1953725, "lat": 11.2163637, "id": "5531272183"}, {"lon": -74.1953648, "lat": 11.2162988, "id": "5531272184"}], "id": "576810720", "tags": {"highway": "residential"}}, {"user": "Eveii", "version": 2, "id": "576873786", "uid": "4633428", "tags": {"highway": "residential"}}, {"user": "Eveii", "version": 1, "uid": "4633428", "nodes": [{"lon": -74.1949769, "lat": 11.2186864, "id": "2717435393"}, {"lon": -74.1948395, "lat": 11.2186328, "id": "5531800874"}, {"lon": -74.195009, "lat": 11.2183206, "id": "5531800875"}, {"lon": -74.1953085, "lat": 11.2184512, "id": "2717435397"}], "id": "576873788", "tags": {"highway": "residential"}}, {"user": "Eveii", "version": 1, "uid": "4633428", "nodes": [{"lon": -74.195009, "lat": 11.2183206, "id": "5531800875"}, {"lon": -74.1951419, "lat": 11.2180786, "id": "5531800876"}], "id": "576873789", "tags": {"highway": "residential"}}, {"user": "Eveii", "version": 1, "uid": "4633428", "nodes": [{"lon": -74.1951419, "lat": 11.2180786, "id": "5531800876"}, {"lon": -74.1955386, "lat": 11.217889, "id": "2717435411"}], "id": "576878678", "tags": {"highway": "residential"}}]