[{"id": "70286103", "uid": "", "version": 4, "tags": {"highway": "residential"}, "user": ""}, {"id": "70286163", "uid": "", "version": 8, "tags": {"name": "Calle 30", "highway": "residential"}, "user": ""}, {"id": "70286283", "uid": "", "version": 4, "tags": {"name": "Calle 112", "highway": "residential"}, "user": ""}, {"id": "70286304", "uid": "", "version": 6, "tags": {"name": "Calle 53", "highway": "residential"}, "user": ""}, {"id": "70286327", "uid": "", "version": 6, "tags": {"name": "Carrera 1  b n", "highway": "residential"}, "user": ""}, {"id": "70286358", "uid": "", "version": 4, "tags": {"name": "Carrera 23 c", "highway": "residential"}, "user": ""}, {"id": "70286824", "uid": "", "version": 3, "tags": {"highway": "residential"}, "user": ""}, {"id": "70287651", "uid": "", "version": 4, "tags": {"name": "Calle 113", "highway": "residential"}, "user": ""}, {"id": "70998841", "uid": "", "version": 5, "tags": {"highway": "residential"}, "user": ""}, {"id": "71008789", "uid": "", "version": 5, "tags": {"name": "Calle 104 h", "highway": "residential"}, "user": ""}, {"id": "71131515", "uid": "", "version": 7, "tags": {"name": "Carrera 24 o", "highway": "residential"}, "user": ""}, {"id": "71255069", "uid": "", "version": 5, "tags": {"highway": "residential"}, "user": ""}, {"id": "71255147", "uid": "", "version": 8, "tags": {"name": "Calle 27", "highway": "residential"}, "user": ""}, {"id": "71775696", "uid": "", "version": 5, "tags": {"name": "Calle 3", "highway": "residential"}, "user": ""}, {"id": "71797608", "uid": "", "version": 4, "tags": {"highway": "residential"}, "user": ""}, {"id": "71806188", "uid": "", "version": 5, "tags": {"name": "Calle 104 F", "highway": "residential"}, "user": ""}, {"id": "71806231", "uid": "", "version": 4, "tags": {"name": "Calle 104 E", "highway": "residential"}, "user": ""}, {"id": "94984310", "uid": "", "version": 3, "tags": {"name": "Calle 15 n", "highway": "residential"}, "user": ""}, {"id": "95240178", "uid": "", "version": 5, "tags": {"highway": "residential"}, "user": ""}, {"id": "95538251", "uid": "", "version": 7, "tags": {"name": "Calle 34", "highway": "residential", "oneway": "yes"}, "user": ""}, {"id": "95538711", "uid": "", "version": 3, "tags": {"name": "Calle 34", "highway": "residential", "oneway": "yes"}, "user": ""}, {"id": "95538892", "uid": "", "version": 3, "tags": {"name": "Carrera 25", "highway": "residential"}, "user": ""}, {"id": "95597062", "uid": "", "version": 5, "tags": {"name": "Calle 40 - Avenida La Rosita", "lanes": "2", "highway": "residential", "oneway": "yes"}, "user": ""}, {"id": "95597359", "uid": "", "version": 3, "tags": {"name": "Carrera 26", "highway": "residential", "oneway": "yes"}, "user": ""}, {"id": "95597433", "uid": "", "version": 2, "tags": {"name": "Carrera 21", "lanes": "3", "highway": "residential", "oneway": "yes"}, "user": ""}, {"id": "95663613", "uid": "", "version": 10, "tags": {"name": "Calle 39", "highway": "residential", "oneway": "yes"}, "user": ""}, {"id": "95663642", "uid": "", "version": 4, "tags": {"name": "Carrera 9", "highway": "residential", "oneway": "yes"}, "user": ""}, {"id": "95663690", "uid": "", "version": 3, "tags": {"name": "Calle 31 b", "highway": "residential"}, "user": ""}, {"id": "95663696", "uid": "", "version": 4, "tags": {"name": "Carrera 9", "highway": "residential", "oneway": "yes"}, "user": ""}, {"id": "95663729", "uid": "", "version": 3, "tags": {"name": "Carrera 22", "lanes": "2", "highway": "residential", "oneway": "yes"}, "user": ""}, {"id": "95663773", "uid": "", "version": 2, "tags": {"name": "Carrera 12", "highway": "residential", "oneway": "yes"}, "user": ""}, {"id": "95678340", "uid": "", "version": 5, "tags": {"name": "Calle 27", "highway": "residential"}, "user": ""}, {"id": "95678624", "uid": "", "version": 3, "tags": {"name": "Carrera 8", "highway": "residential"}, "user": ""}, {"id": "95678669", "uid": "", "version": 2, "tags": {"highway": "residential"}, "user": ""}, {"id": "95713967", "uid": "", "version": 8, "tags": {"name": "Calle 55", "lanes": "1", "highway": "residential", "oneway": "yes"}, "user": ""}, {"id": "95965806", "uid": "", "version": 2, "tags": {"highway": "residential"}, "user": ""}, {"id": "96826644", "uid": "", "version": 5, "tags": {"source": "bing", "name": "Carrera 8E", "autor": "S.D.", "creation": "13-07-2011", "highway": "residential"}, "user": ""}, {"id": "97019489", "uid": "", "version": 2, "tags": {"highway": "residential"}, "user": ""}, {"id": "97030172", "uid": "", "version": 4, "tags": {"highway": "residential"}, "user": ""}, {"id": "97994847", "uid": "", "version": 2, "tags": {"highway": "residential"}, "user": ""}, {"id": "98220725", "uid": "", "version": 4, "tags": {"highway": "residential"}, "user": ""}, {"id": "98220870", "uid": "", "version": 4, "tags": {"name": "Calle 109", "highway": "residential"}, "user": ""}, {"id": "98245326", "uid": "", "version": 3, "tags": {"highway": "residential"}, "user": ""}, {"id": "98662611", "uid": "", "version": 2, "tags": {"name": "Carrera 13", "highway": "residential"}, "user": ""}, {"id": "98662627", "uid": "", "version": 3, "tags": {"name": "Carrera 15 e", "highway": "residential"}, "user": ""}, {"id": "98662689", "uid": "", "version": 3, "tags": {"highway": "residential"}, "user": ""}, {"id": "98781334", "uid": "", "version": 3, "tags": {"name": "Carrera 24", "highway": "residential"}, "user": ""}, {"id": "98781410", "uid": "", "version": 3, "tags": {"name": "Carrera 23 a", "highway": "residential"}, "user": ""}, {"id": "98812486", "uid": "", "version": 3, "tags": {"name": "Diagonal 18", "highway": "residential"}, "user": ""}, {"id": "98812507", "uid": "", "version": 2, "tags": {"highway": "residential"}, "user": ""}, {"id": "98812594", "uid": "", "version": 3, "tags": {"name": "Calle 52", "highway": "residential"}, "user": ""}, {"id": "98812602", "uid": "", "version": 4, "tags": {"name": "Calle 53", "highway": "residential"}, "user": ""}, {"id": "99236013", "uid": "", "version": 2, "tags": {"highway": "residential"}, "user": ""}, {"id": "99731985", "uid": "", "version": 3, "tags": {"name": "Calle 37", "highway": "residential"}, "user": ""}, {"id": "121521271", "uid": "", "version": 7, "tags": {"surface": "dirt", "source": "bing", "autor": "S.D.", "creation": "13-07-2011", "highway": "residential"}, "user": ""}, {"id": "121525300", "uid": "", "version": 3, "tags": {"source": "bing", "name": "Carrera 6AE", "autor": "S.D.", "creation": "13-07-2011", "highway": "residential"}, "user": ""}, {"id": "121525301", "uid": "", "version": 3, "tags": {"source": "bing", "name": "Calle 31", "autor": "S.D.", "creation": "13-07-2011", "highway": "residential"}, "user": ""}, {"id": "121525440", "uid": "", "version": 3, "tags": {"source": "bing", "name": "Calle 32", "autor": "S.D.", "creation": "13-07-2011", "highway": "residential"}, "user": ""}, {"id": "272968571", "uid": "", "version": 3, "tags": {"highway": "residential"}, "user": ""}, {"id": "344883226", "uid": "", "version": 3, "tags": {"highway": "residential"}, "user": ""}, {"id": "355350714", "uid": "", "version": 2, "tags": {"highway": "residential"}, "user": ""}, {"id": "454888684", "uid": "", "version": 3, "tags": {"maxspeed": "30", "highway": "residential", "oneway": "no"}, "user": ""}, {"id": "471625525", "uid": "", "version": 2, "tags": {"name": "Calle 46", "highway": "residential", "oneway": "yes"}, "user": ""}, {"id": "561206957", "uid": "", "version": 2, "tags": {"surface": "dirt", "source": "bing", "autor": "S.D.", "creation": "13-07-2011", "highway": "residential"}, "user": ""}, {"id": "561206960", "uid": "", "version": 2, "tags": {"surface": "dirt", "source": "bing", "autor": "S.D.", "creation": "13-07-2011", "highway": "residential"}, "user": ""}, {"id": "561412171", "uid": "", "version": 2, "tags": {"highway": "residential"}, "user": ""}, {"id": "561433316", "uid": "", "version": 3, "tags": {"highway": "residential"}, "user": ""}, {"id": "588875637", "uid": "", "version": 2, "tags": {"highway": "residential"}, "user": ""}, {"id": "588935200", "tags": {"highway": "residential"}, "nodes": [{"id": "5624143328", "lon": -73.1425056, "lat": 7.1151124}, {"id": "5624143329", "lon": -73.14253, "lat": 7.115303}, {"id": "5624143330", "lon": -73.142557, "lat": 7.1155402}], "uid": "", "version": 1, "user": ""}, {"id": "588956732", "tags": {"highway": "residential"}, "nodes": [{"id": "5624308130", "lon": -73.0892928, "lat": 7.0766839}, {"id": "5624308131", "lon": -73.0887522, "lat": 7.0772528}], "uid": "", "version": 1, "user": ""}]