[{"id": "70286165", "uid": "", "version": 7, "tags": {"autor": "S.D.", "creation": "2011-10-30", "surface": "dirt", "source": "bing", "name": "Carrera 2 n", "highway": "service"}, "user": ""}, {"id": "70287400", "uid": "", "version": 8, "tags": {"autor": "S.D.", "creation": "2011-10-30", "surface": "dirt", "source": "bing", "name": "Carrera 1  a n", "highway": "service"}, "user": ""}, {"id": "70287486", "uid": "", "version": 7, "tags": {"autor": "S.D.", "creation": "2011-10-30", "surface": "dirt", "source": "bing", "name": "Carrera 5 n", "highway": "service"}, "user": ""}, {"id": "94984638", "uid": "", "version": 5, "tags": {"autor": "S.D.", "creation": "2011-10-30", "surface": "dirt", "source": "bing", "name": "Calle 15 n", "highway": "service"}, "user": ""}, {"id": "179899879", "uid": "", "version": 4, "tags": {"name": "Calle 53a", "highway": "service"}, "user": ""}, {"id": "186030698", "uid": "", "version": 3, "tags": {"surface": "dirt", "source": "bing", "autor": "S.D.", "creation": "2012-10-15", "highway": "service"}, "user": ""}, {"id": "588950828", "tags": {"highway": "service"}, "nodes": [{"id": "5624261959", "lon": -73.17767, "lat": 7.0763634}, {"id": "5624261960", "lon": -73.17772, "lat": 7.07628}, {"id": "5624261961", "lon": -73.1778313, "lat": 7.0759848}], "uid": "", "version": 1, "user": ""}, {"id": "588950830", "tags": {"highway": "service"}, "nodes": [{"id": "5624261961", "lon": -73.1778313, "lat": 7.0759848}, {"id": "5624261962", "lon": -73.1776428, "lat": 7.075694}], "uid": "", "version": 1, "user": ""}, {"id": "588950832", "tags": {"highway": "service"}, "nodes": [{"id": "5624261962", "lon": -73.1776428, "lat": 7.075694}, {"id": "5624261963", "lon": -73.1775394, "lat": 7.0755813}, {"id": "5624261964", "lon": -73.1774849, "lat": 7.0754574}, {"id": "5624261965", "lon": -73.1774259, "lat": 7.0753233}, {"id": "845979922", "lon": -73.1774363, "lat": 7.0752951}], "uid": "", "version": 1, "user": ""}]