[{"version": 18, "uid": "3401745", "tags": {"source": "landsat", "highway": "tertiary"}, "user": "VuokkoH", "id": "40817794"}, {"version": 15, "uid": "2799722", "tags": {"source": "Bing", "highway": "tertiary"}, "user": "eglatorre", "id": "280460993"}, {"version": 21, "uid": "5456253", "tags": {"surface": "unpaved", "highway": "tertiary"}, "user": "IidAut", "id": "377714813"}, {"version": 4, "uid": "3418118", "tags": {"highway": "tertiary"}, "user": "jalonpa", "id": "394423634"}, {"version": 5, "uid": "4611269", "tags": {"highway": "tertiary"}, "user": "Pinja-Liina", "id": "401668599"}, {"version": 7, "uid": "3418118", "tags": {"highway": "tertiary"}, "user": "jalonpa", "id": "418643112"}, {"version": 2, "uid": "190690", "tags": {"highway": "tertiary"}, "user": "posiki", "id": "430160005"}, {"version": 2, "uid": "4561617", "tags": {"highway": "tertiary"}, "user": "hilppap", "id": "444259249"}, {"version": 4, "uid": "3403645", "tags": {"highway": "tertiary"}, "user": "suwyslam", "id": "482666783"}, {"version": 2, "uid": "3403645", "tags": {"highway": "tertiary"}, "user": "suwyslam", "id": "488123833"}, {"version": 1, "tags": {"access": "permissive", "foot": "yes", "highway": "tertiary"}, "id": "491365446", "uid": "5777168", "nodes": [{"lat": 10.7272931, "lon": 3.9657835, "id": "4834848027"}, {"lat": 10.7274469, "lon": 3.9657525, "id": "4834860686"}, {"lat": 10.7276812, "lon": 3.9657993, "id": "4834860687"}, {"lat": 10.728087, "lon": 3.9657908, "id": "4834860688"}, {"lat": 10.7285722, "lon": 3.9658078, "id": "4834860689"}, {"lat": 10.7289529, "lon": 3.9657525, "id": "4834860690"}, {"lat": 10.7291328, "lon": 3.9657865, "id": "4834860691"}], "user": "kaldeve"}, {"version": 1, "tags": {"access": "permissive", "foot": "yes", "highway": "tertiary"}, "id": "491365447", "uid": "5777168", "nodes": [{"lat": 10.7291328, "lon": 3.9657865, "id": "4834860691"}, {"lat": 10.729604, "lon": 3.9657781, "id": "4834860692"}, {"lat": 10.7300893, "lon": 3.9658632, "id": "4834860693"}, {"lat": 10.7308088, "lon": 3.9659314, "id": "4834860694"}, {"lat": 10.7312606, "lon": 3.9659825, "id": "4834860695"}], "user": "kaldeve"}, {"version": 1, "tags": {"access": "permissive", "foot": "yes", "highway": "tertiary"}, "id": "491365448", "uid": "5777168", "nodes": [{"lat": 10.7312606, "lon": 3.9659825, "id": "4834860695"}, {"lat": 10.7317716, "lon": 3.9659772, "id": "4834860696"}], "user": "kaldeve"}, {"version": 1, "tags": {"highway": "tertiary"}, "id": "491367576", "uid": "5777168", "nodes": [{"lat": 10.7332244, "lon": 3.9648494, "id": "4834895142"}], "user": "kaldeve"}, {"version": 1, "tags": {"highway": "tertiary"}, "id": "491368266", "uid": "84967", "nodes": [{"lat": 10.8737203, "lon": 4.3945205, "id": "4834900138"}, {"lat": 10.8742752, "lon": 4.3912883, "id": "4834900129"}, {"lat": 10.8747581, "lon": 4.3884748, "id": "4834900137"}, {"lat": 10.8755167, "lon": 4.3835986, "id": "4834900136"}, {"lat": 10.8764703, "lon": 4.3778425, "id": "4834900135"}], "user": "Kinos"}, {"version": 1, "tags": {"highway": "tertiary"}, "id": "491379900", "uid": "5777168", "nodes": [{"lat": 10.7155195, "lon": 3.9620339, "id": "4835021985"}, {"lat": 10.7155171, "lon": 3.9620031, "id": "4835022932"}, {"lat": 10.7154857, "lon": 3.9619136, "id": "4835022933"}, {"lat": 10.7154418, "lon": 3.9618349, "id": "4835022934"}], "user": "kaldeve"}]