[{"uid": "69016", "id": "428537357", "user": "erno", "version": 16, "tags": {"highway": "unclassified"}}, {"uid": "69016", "id": "428537359", "user": "erno", "version": 12, "tags": {"highway": "unclassified"}}, {"uid": "69016", "id": "432411444", "user": "erno", "version": 4, "tags": {"highway": "unclassified"}}, {"uid": "69016", "id": "432427927", "user": "erno", "version": 3, "tags": {"highway": "unclassified"}}, {"uid": "2799722", "id": "432441371", "user": "eglatorre", "version": 2, "tags": {"highway": "unclassified"}}, {"uid": "3403646", "id": "432441435", "user": "HannaKstn", "version": 3, "tags": {"highway": "unclassified"}}, {"uid": "2799722", "id": "432443734", "user": "eglatorre", "version": 3, "tags": {"highway": "unclassified"}}, {"uid": "3403644", "id": "477158529", "user": "aihelle", "version": 2, "tags": {"highway": "unclassified"}}, {"uid": "69016", "id": "479537364", "user": "erno", "version": 2, "tags": {"highway": "unclassified"}}, {"uid": "3403646", "id": "479539393", "user": "HannaKstn", "version": 2, "tags": {"highway": "unclassified"}}, {"uid": "69016", "id": "479540130", "user": "erno", "version": 2, "tags": {"highway": "unclassified"}}, {"uid": "2799722", "id": "479540133", "user": "eglatorre", "version": 2, "tags": {"highway": "unclassified"}}, {"uid": "2799722", "id": "479540134", "user": "eglatorre", "version": 2, "tags": {"highway": "unclassified"}}, {"uid": "5456268", "id": "479540138", "user": "inkajt", "version": 3, "tags": {"highway": "unclassified"}}, {"uid": "2799722", "id": "479540139", "user": "eglatorre", "version": 2, "tags": {"highway": "unclassified"}}, {"uid": "5248639", "tags": {"highway": "unclassified"}, "user": "venlamapping", "id": "479540436", "version": 1, "nodes": [{"id": "4726230458", "lon": 108.7638666, "lat": 15.1489705}, {"id": "4726230459", "lon": 108.7642353, "lat": 15.1489168}, {"id": "4726230460", "lon": 108.7643071, "lat": 15.1488362}, {"id": "4726230461", "lon": 108.7643952, "lat": 15.1488094}, {"id": "4726230462", "lon": 108.7644625, "lat": 15.1488452}, {"id": "4726230463", "lon": 108.7646688, "lat": 15.148787}]}, {"uid": "69016", "id": "479540841", "user": "erno", "version": 2, "tags": {"highway": "unclassified"}}, {"uid": "69016", "id": "479540842", "user": "erno", "version": 2, "tags": {"highway": "unclassified"}}, {"uid": "69016", "id": "479544098", "user": "erno", "version": 2, "tags": {"highway": "unclassified"}}, {"uid": "69016", "id": "479544111", "user": "erno", "version": 2, "tags": {"highway": "unclassified"}}, {"uid": "69016", "id": "479544113", "user": "erno", "version": 2, "tags": {"highway": "unclassified"}}, {"uid": "69016", "id": "479544114", "user": "erno", "version": 2, "tags": {"highway": "unclassified"}}, {"uid": "69016", "id": "479544132", "user": "erno", "version": 2, "tags": {"highway": "unclassified"}}, {"uid": "3684596", "tags": {"highway": "unclassified"}, "user": "Antti Salovaara", "id": "479544697", "version": 1, "nodes": [{"id": "4726265743", "lon": 108.7422358, "lat": 15.192546}, {"id": "4726265707", "lon": 108.7418635, "lat": 15.1920923}]}, {"uid": "69016", "id": "479545521", "user": "erno", "version": 2, "tags": {"highway": "unclassified"}}]