[{"id": "441768739", "uid": "633013", "tags": {"highway": "unclassified", "surface": "unpaved"}, "user": "Honning", "version": 2}, {"id": "441768763", "uid": "633013", "tags": {"highway": "unclassified", "surface": "unpaved"}, "user": "Honning", "version": 2}, {"id": "441768766", "uid": "633013", "tags": {"highway": "unclassified", "surface": "unpaved"}, "user": "Honning", "version": 5}, {"id": "441770303", "uid": "633013", "tags": {"highway": "unclassified", "surface": "unpaved"}, "user": "Honning", "version": 2}, {"id": "441770381", "uid": "633013", "tags": {"highway": "unclassified", "surface": "unpaved"}, "user": "Honning", "version": 2}, {"id": "441770394", "uid": "633013", "tags": {"highway": "unclassified", "surface": "unpaved"}, "user": "Honning", "version": 3}, {"id": "442753667", "uid": "633013", "tags": {"highway": "unclassified", "surface": "unpaved"}, "user": "Honning", "version": 2}, {"id": "442753669", "uid": "633013", "tags": {"highway": "unclassified", "surface": "unpaved"}, "user": "Honning", "version": 2}, {"id": "442753675", "uid": "633013", "tags": {"highway": "unclassified", "surface": "unpaved"}, "user": "Honning", "version": 6}, {"id": "442753821", "uid": "633013", "tags": {"highway": "unclassified", "surface": "unpaved"}, "user": "Honning", "version": 2}, {"id": "442753822", "uid": "633013", "tags": {"highway": "unclassified", "surface": "unpaved"}, "user": "Honning", "version": 2}, {"id": "442753823", "uid": "633013", "tags": {"highway": "unclassified", "surface": "unpaved"}, "user": "Honning", "version": 3}, {"id": "442754296", "uid": "633013", "tags": {"highway": "unclassified", "surface": "unpaved"}, "user": "Honning", "version": 2}, {"id": "442754304", "uid": "633013", "tags": {"highway": "unclassified", "surface": "unpaved"}, "user": "Honning", "version": 2}, {"id": "442755442", "uid": "633013", "tags": {"highway": "unclassified", "surface": "unpaved"}, "user": "Honning", "version": 2}, {"id": "443394690", "uid": "633013", "tags": {"highway": "unclassified", "surface": "unpaved"}, "user": "Honning", "version": 2}, {"id": "443688695", "uid": "633013", "tags": {"highway": "unclassified", "surface": "unpaved"}, "user": "Honning", "version": 2}, {"id": "462802804", "uid": "633013", "tags": {"highway": "unclassified", "surface": "unpaved"}, "user": "Honning", "version": 4}, {"id": "472834062", "uid": "633013", "tags": {"highway": "unclassified", "surface": "unpaved"}, "user": "Honning", "version": 3}, {"tags": {"highway": "unclassified", "surface": "unpaved"}, "nodes": [{"lat": -1.1752491, "id": "4675182509", "lon": 34.370485}], "id": "473400859", "uid": "633013", "version": 1, "user": "Honning"}, {"tags": {"highway": "unclassified", "surface": "unpaved"}, "nodes": [{"lat": -1.1800517, "id": "4404142113", "lon": 34.3820321}], "id": "473400865", "uid": "633013", "version": 1, "user": "Honning"}, {"tags": {"highway": "unclassified"}, "nodes": [{"lat": -1.1590957, "id": "4675257355", "lon": 34.3763694}, {"lat": -1.1591701, "id": "4675257356", "lon": 34.3764538}, {"lat": -1.1592644, "id": "4675257357", "lon": 34.3765332}, {"lat": -1.1592644, "id": "4675257358", "lon": 34.3766921}, {"lat": -1.1593488, "id": "4675257359", "lon": 34.3767467}, {"lat": -1.1594232, "id": "4675257360", "lon": 34.3768062}], "id": "473408533", "uid": "4928422", "version": 1, "user": "Jon Rice"}, {"tags": {"highway": "unclassified"}, "nodes": [{"lat": -1.1594232, "id": "4675257360", "lon": 34.3768062}, {"lat": -1.1595026, "id": "4675257361", "lon": 34.3768658}, {"lat": -1.1596813, "id": "4675257362", "lon": 34.3769154}, {"lat": -1.1597855, "id": "4675257363", "lon": 34.37698}, {"lat": -1.1598599, "id": "4675257364", "lon": 34.377114}, {"lat": -1.1599542, "id": "4675257365", "lon": 34.3772331}, {"lat": -1.1598748, "id": "4675257366", "lon": 34.3775805}, {"lat": -1.1598351, "id": "4675257367", "lon": 34.3776748}, {"lat": -1.1598549, "id": "4675257368", "lon": 34.3780074}], "id": "473408534", "uid": "4928422", "version": 1, "user": "Jon Rice"}, {"tags": {"highway": "unclassified"}, "nodes": [{"lat": -1.1598549, "id": "4675257368", "lon": 34.3780074}, {"lat": -1.1599343, "id": "4675257369", "lon": 34.3784243}, {"lat": -1.1600137, "id": "4675257370", "lon": 34.3787718}, {"lat": -1.1600584, "id": "4675257371", "lon": 34.3789653}, {"lat": -1.1599244, "id": "4675257372", "lon": 34.3790299}, {"lat": -1.1599492, "id": "4675257373", "lon": 34.3791937}], "id": "473408535", "uid": "4928422", "version": 1, "user": "Jon Rice"}, {"tags": {"highway": "unclassified"}, "nodes": [{"lat": -1.145841, "id": "4675257384", "lon": 34.3671757}, {"lat": -1.1457566, "id": "4675257385", "lon": 34.3672394}, {"lat": -1.145729, "id": "4675257386", "lon": 34.367267}, {"lat": -1.1456487, "id": "4675257387", "lon": 34.3672745}, {"lat": -1.145581, "id": "4675257388", "lon": 34.3672745}, {"lat": -1.1455534, "id": "4675257689", "lon": 34.3672569}, {"lat": -1.1455208, "id": "4675257690", "lon": 34.3672544}, {"lat": -1.1454831, "id": "4675257691", "lon": 34.3672343}, {"lat": -1.1454455, "id": "4675257692", "lon": 34.367282}, {"lat": -1.1453778, "id": "4675257693", "lon": 34.3672544}], "id": "473408538", "uid": "4928422", "version": 1, "user": "Jon Rice"}, {"tags": {"highway": "unclassified"}, "nodes": [{"lat": -1.1474713, "id": "4675262266", "lon": 34.3853551}, {"lat": -1.1474762, "id": "4675262267", "lon": 34.3852217}, {"lat": -1.1474682, "id": "4675262268", "lon": 34.3849978}, {"lat": -1.1474403, "id": "4675262269", "lon": 34.3848859}, {"lat": -1.1473483, "id": "4675262270", "lon": 34.384754}, {"lat": -1.1472549, "id": "4675257331", "lon": 34.3846535}], "id": "473409161", "uid": "4928422", "version": 1, "user": "Jon Rice"}, {"tags": {"highway": "unclassified"}, "nodes": [{"lat": -1.1475334, "id": "4675262271", "lon": 34.3853614}, {"lat": -1.1475818, "id": "4675262272", "lon": 34.3854307}, {"lat": -1.1476052, "id": "4675262273", "lon": 34.385504}, {"lat": -1.1476346, "id": "4675262274", "lon": 34.3856095}, {"lat": -1.1476433, "id": "4675262275", "lon": 34.3857003}, {"lat": -1.1476814, "id": "4675262276", "lon": 34.3857795}, {"lat": -1.1476873, "id": "4675262277", "lon": 34.3858381}, {"lat": -1.1477166, "id": "4675262278", "lon": 34.3859377}, {"lat": -1.1477459, "id": "4675262279", "lon": 34.3860081}, {"lat": -1.1478367, "id": "4675262280", "lon": 34.3862074}, {"lat": -1.14774, "id": "4675262281", "lon": 34.386307}, {"lat": -1.1476521, "id": "4675262282", "lon": 34.3864184}, {"lat": -1.1475787, "id": "4675262283", "lon": 34.3865058}], "id": "473409162", "uid": "4928422", "version": 1, "user": "Jon Rice"}, {"tags": {"highway": "unclassified"}, "nodes": [{"lat": -1.1530746, "id": "4675262393", "lon": 34.3849182}, {"lat": -1.1530411, "id": "4675262394", "lon": 34.3847846}, {"lat": -1.1529378, "id": "4675262395", "lon": 34.3846316}, {"lat": -1.1528262, "id": "4675262396", "lon": 34.3844415}, {"lat": -1.1526981, "id": "4675262397", "lon": 34.3843134}, {"lat": -1.1524295, "id": "4675262398", "lon": 34.3840819}], "id": "473409165", "uid": "4928422", "version": 1, "user": "Jon Rice"}, {"tags": {"highway": "unclassified"}, "nodes": [{"lat": -1.1492082, "id": "4675264007", "lon": 34.3719562}, {"lat": -1.1493365, "id": "4675264008", "lon": 34.3721583}, {"lat": -1.1494392, "id": "4675264009", "lon": 34.3722744}, {"lat": -1.1495375, "id": "4675264010", "lon": 34.3724352}, {"lat": -1.1496179, "id": "4675264011", "lon": 34.3726005}, {"lat": -1.1497251, "id": "4675264012", "lon": 34.3727703}, {"lat": -1.1499082, "id": "4675264013", "lon": 34.3728417}, {"lat": -1.150136, "id": "4675264014", "lon": 34.3729043}, {"lat": -1.1503504, "id": "4675264015", "lon": 34.3729757}, {"lat": -1.1506005, "id": "4675264016", "lon": 34.37315}, {"lat": -1.150721, "id": "4675264017", "lon": 34.3734135}, {"lat": -1.1508729, "id": "4675264018", "lon": 34.3737664}, {"lat": -1.1508908, "id": "4675264019", "lon": 34.3740121}, {"lat": -1.1508997, "id": "4675264020", "lon": 34.3740612}, {"lat": -1.1508148, "id": "4675264021", "lon": 34.3742757}, {"lat": -1.1507389, "id": "4675264022", "lon": 34.3744365}, {"lat": -1.1507255, "id": "4675264023", "lon": 34.3745392}, {"lat": -1.150529, "id": "4675264024", "lon": 34.3742131}, {"lat": -1.1504754, "id": "4675264025", "lon": 34.3741461}], "id": "473409338", "uid": "4928422", "version": 1, "user": "Jon Rice"}]